Name,Address,Featured image,Bing Maps URL,Latitude,Longitude,Website,Phone,Emails,Social Medias,Facebook,Instagram,Twitter
Mozartdenkmal,Kapuzinerberg 7 Salzburg,,https://www.bing.com/maps?cp=47.80210494995117%7E13.048529624938965&lvl=17.0&q=Mozartdenkmal%20%2C%20Kapuzinerberg%207%20Salzburg,47.80210494995117,13.048529624938965,https://www.stadt-salzburg.at/internet/wirtschaft_umwelt/natur/stadtberge/kapuzinerberg_370730/mozart_denkmal_414033.htm,,"ordnungsamt@stadt-salzburg.at,post@stadt-salzburg.at,kgaigen@stadt-salzburg.at,stadtarchivundstatistik@stadt-salzburg.at,abgabenbehoerde@stadt-salzburg.at,gemeinderatskanzlei@stadt-salzburg.at",,,,
Kapitelplatz & Kapitelschwemme,Kapitelplatz · 5020 Salzburg,https://www.bing.com/th?id=OLC.w+fOrf3Qbx5pQA480x360&pid=Local,https://www.bing.com/maps?cp=47.797401428222656%7E13.045869827270508&lvl=17.0&q=Kapitelplatz%20%26%20Kapitelschwemme%20%2C%20Kapitelplatz%20%C2%B7%205020%20Salzburg,47.797401428222656,13.045869827270508,https://www.salzburg.info/en/sights/squares-streets/kapitelplatz-kapitelschwemme,,"tourist@salzburg.info,presse@salzburg.info,marketing@salzburg.info,digital-media@salzburg.info,privacy@salzburg.info,cards@salzburg.info","{""facebook"":""https://www.facebook.com/policy.php"",""youtube"":""https://www.youtube.com/user/salzburginfo"",""instagram"":""https://instagram.com/about/legal/privacy/"",""twitter"":""https://twitter.com/de/privacy"",""pinterest"":""https://policy.pinterest.com/en/privacy-policy""}",https://www.facebook.com/policy.php,https://instagram.com/about/legal/privacy/,https://twitter.com/de/privacy
Salzburg Museum,"Mozartplatz 1, Postfach 10 · 5020 Salzburg",https://www.bing.com/th?id=OLC.HMZj2dBodwZMQA480x360&pid=Local,https://www.bing.com/maps?cp=47.79873275756836%7E13.047554016113281&lvl=17.0&q=Salzburg%20Museum%20%2C%20Mozartplatz%201%2C%20Postfach%2010%20%C2%B7%205020%20Salzburg,47.79873275756836,13.047554016113281,http://salzburgmuseum.at/,0662 620808700,"info@salzburg.info,peter.husty@salzburgmuseum.at,eva.maria.feldinger@salzburgmuseum.at,office@salzburgmuseum.at,tourist@salzburg.info","{""facebook"":""https://www.facebook.com/salzburg.museum/"",""youtube"":""https://www.youtube.com/channel/ucgraq9jpozen5w1ran3t1xq"",""instagram"":""https://www.instagram.com/salzburg_museum/"",""twitter"":""https://twitter.com/salzburgmuseum""}",https://www.facebook.com/salzburg.museum/,https://www.instagram.com/salzburg_museum/,https://twitter.com/salzburgmuseum
Residenzgalerie Salzburg,Residenzplatz 1 · 5020 Salzburg,https://www.bing.com/th?id=OLC.O32qK7EgcapbJQ480x360&pid=Local,https://www.bing.com/maps?cp=47.79844284057617%7E13.045928955078125&lvl=17.0&q=Residenzgalerie%20Salzburg%20%2C%20Residenzplatz%201%20%C2%B7%205020%20Salzburg,47.79844284057617,13.045928955078125,https://www.domquartier.at/residenzgalerie/,0662 80422109,"office@domquartier.at,roswitha@juffinger.cc","{""youtube"":""https://www.youtube.com/channel/ucfwzng_llavdc7jtn6rwssw"",""facebook"":""https://www.facebook.com/domquartier/"",""instagram"":""https://www.instagram.com/domquartier/""}",https://www.facebook.com/domquartier/,https://www.instagram.com/domquartier/,
Mozart's Birthplace,Getreidegasse 9 · 5020 Salzburg,https://www.bing.com/th?id=OLC.7raKjMY0FErqhw480x360&pid=Local,https://www.bing.com/maps?cp=47.79998016357422%7E13.043534278869629&lvl=17.0&q=Mozart's%20Birthplace%20%2C%20Getreidegasse%209%20%C2%B7%205020%20Salzburg,47.79998016357422,13.043534278869629,https://mozarteum.at/mozart-museen/mozarts-geburtshaus,0662 844313,"75museum.service@mozarteum.at,pfadt@mozarteum.at,museum.service@mozarteum.at","{""facebook"":""https://www.facebook.com/stiftungmozarteum/"",""instagram"":""https://www.instagram.com/stiftungmozarteum/"",""youtube"":""https://www.youtube.com/user/stiftungmozarteum""}",https://www.facebook.com/stiftungmozarteum/,https://www.instagram.com/stiftungmozarteum/,
Salzburg Cathedral,Domplatz 1A · 5020 Salzburg,https://www.bing.com/th?id=OLC.qLeLbdSZExN18A480x360&pid=Local,https://www.bing.com/maps?cp=47.79790115356445%7E13.045971870422363&lvl=17.0&q=Salzburg%20Cathedral%20%2C%20Domplatz%201A%20%C2%B7%205020%20Salzburg,47.79790115356445,13.045971870422363,https://www.salzburger-dom.at/,0662 80476640,"info@salzburg.info,office@domquartier.at,andrea.feuerstein@eds.at,daniela.carollo@eds.at","{""instagram"":""https://www.instagram.com/domzusalzburg/"",""facebook"":""https://www.facebook.com/domquartier/"",""youtube"":""https://www.youtube.com/channel/ucfwzng_llavdc7jtn6rwssw""}",https://www.facebook.com/domquartier/,https://www.instagram.com/domzusalzburg/,
Awilda Sculpture,"Sigmund-Haffner-Gasse 13/11, 5020 Salzburg · 5020 Salzburg",https://www.bing.com/th?id=OLC.7ytGq5x0ylVl2A480x360&pid=Local,https://www.bing.com/maps?cp=47.798439025878906%7E13.04403018951416&lvl=17.0&q=Awilda%20Sculpture%20%2C%20Sigmund-Haffner-Gasse%2013%2F11%2C%205020%20Salzburg%20%C2%B7%205020%20Salzburg,47.798439025878906,13.04403018951416,https://www.salzburg.info/en/salzburg/creative-salzburg/art-in-public-room/walk-of-modern-art/awilda,,"tourist@salzburg.info,presse@salzburg.info,marketing@salzburg.info,digital-media@salzburg.info,privacy@salzburg.info","{""facebook"":""https://www.facebook.com/policy.php"",""youtube"":""https://www.youtube.com/user/salzburginfo"",""instagram"":""https://instagram.com/about/legal/privacy/"",""twitter"":""https://twitter.com/de/privacy"",""pinterest"":""https://policy.pinterest.com/en/privacy-policy"",""yelp"":""https://www.yelp.com/biz/awilda-salzburg""}",https://www.facebook.com/policy.php,https://instagram.com/about/legal/privacy/,https://twitter.com/de/privacy
Makartsteg,Makartsteg / Ferdinand-Hanusch-Platz · 5020 Salzburg,https://www.bing.com/th?id=OLC.vwufmxHbWhgozA480x360&pid=Local,https://www.bing.com/maps?cp=47.80097961425781%7E13.042519569396973&lvl=17.0&q=Makartsteg%20%2C%20Makartsteg%20%2F%20Ferdinand-Hanusch-Platz%20%C2%B7%205020%20Salzburg,47.80097961425781,13.042519569396973,https://www.visit-salzburg.net/sightseeing.htm,,info@visit-salzburg.net,,,,
Fortress Hohensalzburg,Moenchsberg 34 · 5020 Salzburg,https://www.bing.com/th?id=OLC.G3XLou9eNNUhzA480x360&pid=Local,https://www.bing.com/maps?cp=47.7950325012207%7E13.047616004943848&lvl=17.0&q=Fortress%20Hohensalzburg%20%2C%20Moenchsberg%2034%20%C2%B7%205020%20Salzburg,47.7950325012207,13.047616004943848,https://www.salzburg-burgen.at/de/festung-hohensalzburg/,0662 84243011,,"{""facebook"":""https://www.facebook.com/festung.hohensalzburg/""}",https://www.facebook.com/festung.hohensalzburg/,,
Pieta,"Kapitelplatz, Salzburg Cathedral · 5020 Salzburg",https://www.bing.com/th?id=OLC.jqhlDyqLOFWVow480x360&pid=Local,https://www.bing.com/maps?cp=47.79740905761719%7E13.045967102050781&lvl=17.0&q=Pieta%20%2C%20Kapitelplatz%2C%20Salzburg%20Cathedral%20%C2%B7%205020%20Salzburg,47.79740905761719,13.045967102050781,https://www.salzburg.info/de/reiseinfos/salzburg-a-z/pieta-von-anna-chromy_az_451757,,tourist@salzburg.info,"{""facebook"":""https://www.facebook.com/salzburg"",""youtube"":""https://www.youtube.com/user/salzburginfo"",""instagram"":""https://www.instagram.com/visitsalzburg/""}",https://www.facebook.com/salzburg,https://www.instagram.com/visitsalzburg/,
Kommune Gruft,Sankt-Peter-Bezirk · 5020 Salzburg,https://www.bing.com/th?id=OLC.VlXfOCxeNGp9bA480x360&pid=Local,https://www.bing.com/maps?cp=47.79655838012695%7E13.04563045501709&lvl=17.0&q=Kommune%20Gruft%20%2C%20Sankt-Peter-Bezirk%20%C2%B7%205020%20Salzburg,47.79655838012695,13.04563045501709,http://www.erzabtei.at/de/katakomben/index.asp?dat=Katakomben,,forstbetrieb@erzabtei.at,,,,
Herbert von Karajan - Statue,"Josef-Friedrich-Hummel-Strasse 1, Vor dem Miethaus, Wohn- und Geschaeftshaus · 5020 Salzburg",https://www.bing.com/th?id=OLC.l6cBP6TCn3y38A480x360&pid=Local,https://www.bing.com/maps?cp=47.8025016784668%7E13.042619705200195&lvl=17.0&q=Herbert%20von%20Karajan%20-%20Statue%20%2C%20Josef-Friedrich-Hummel-Strasse%201%2C%20Vor%20dem%20Miethaus%2C%20Wohn-%20und%20Geschaeftshaus%20%C2%B7%205020%20Salzburg,47.8025016784668,13.042619705200195,,,,,,,
Hommage to Mozart Sculpture,"Ursulinenplatz, 5020 Salzburg Salzburg",https://www.bing.com/th?id=OLC.GalYLou7xCSiyg480x360&pid=Local,https://www.bing.com/maps?cp=47.80221939086914%7E13.038410186767578&lvl=17.0&q=Hommage%20to%20Mozart%20Sculpture%20%2C%20Ursulinenplatz%2C%205020%20Salzburg%20Salzburg,47.80221939086914,13.038410186767578,https://www.atlasobscura.com/places/hommage-to-mozart,,info@salzburg.info,"{""youtube"":""https://www.youtube.com/user/atlasobscura"",""facebook"":""https://www.facebook.com/atlasobscura/"",""instagram"":""https://www.instagram.com/atlasobscura/"",""twitter"":""https://twitter.com/atlasobscura"",""pinterest"":""https://www.pinterest.com/atlasobscura/_saved/""}",https://www.facebook.com/atlasobscura/,https://www.instagram.com/atlasobscura/,https://twitter.com/atlasobscura
Residenzbrunnen,Residenzplatz Salzburg,https://www.bing.com/th?id=OLC.yzs3NePulvGQOg480x360&pid=Local,https://www.bing.com/maps?cp=47.7983283996582%7E13.045610427856445&lvl=17.0&q=Residenzbrunnen%20%2C%20Residenzplatz%20Salzburg,47.7983283996582,13.045610427856445,https://www.salzburg.info/en/sights/squares-streets/residenzplatz,,"tourist@salzburg.info,presse@salzburg.info,marketing@salzburg.info,digital-media@salzburg.info,privacy@salzburg.info","{""facebook"":""https://www.facebook.com/policy.php"",""youtube"":""https://www.youtube.com/user/salzburginfo"",""instagram"":""https://instagram.com/about/legal/privacy/"",""twitter"":""https://twitter.com/de/privacy"",""pinterest"":""https://policy.pinterest.com/en/privacy-policy""}",https://www.facebook.com/policy.php,https://instagram.com/about/legal/privacy/,https://twitter.com/de/privacy
Tourist Information,"Suedtiroler Platz 1, Hauptbahnhof · 5020 Salzburg",https://www.bing.com/th?id=OLC.OJehfK9JO+C1RA480x360&pid=Local,https://www.bing.com/maps?cp=47.81351852416992%7E13.04510498046875&lvl=17.0&q=Tourist%20Information%20%2C%20Suedtiroler%20Platz%201%2C%20Hauptbahnhof%20%C2%B7%205020%20Salzburg,47.81351852416992,13.04510498046875,https://www.salzburg.info/en/travel-info/tourist-information/tourist-info-salzburg-main-station,0662 88987340,"tourist@salzburg.info,presse@salzburg.info,marketing@salzburg.info,digital-media@salzburg.info,privacy@salzburg.info","{""facebook"":""https://www.facebook.com/policy.php"",""youtube"":""https://www.youtube.com/user/salzburginfo"",""instagram"":""https://instagram.com/about/legal/privacy/"",""twitter"":""https://twitter.com/de/privacy"",""pinterest"":""https://policy.pinterest.com/en/privacy-policy""}",https://www.facebook.com/policy.php,https://instagram.com/about/legal/privacy/,https://twitter.com/de/privacy
Schloss Freisaal,Freisaalweg 31 · 5020 Salzburg,https://www.bing.com/th?id=OLC.HQgh8vt5hvY0KA480x360&pid=Local,https://www.bing.com/maps?cp=47.78709030151367%7E13.057379722595215&lvl=17.0&q=Schloss%20Freisaal%20%2C%20Freisaalweg%2031%20%C2%B7%205020%20Salzburg,47.78709030151367,13.057379722595215,http://www.salzburg-rundgang.at/sehenswuerdigkeiten/burgen_und_schloesser/schloss_freisaal,0662 80420,,"{""facebook"":""https://www.facebook.com/vividplanet/"",""instagram"":""https://www.instagram.com/vividplanetsoftware/"",""linkedin"":""https://www.linkedin.com/company/vivid-planet-software-gmbh/""}",https://www.facebook.com/vividplanet/,https://www.instagram.com/vividplanetsoftware/,
Kaipromenade,Makartsteg · 5020 Salzburg,,https://www.bing.com/maps?cp=47.801780700683594%7E13.042149543762207&lvl=17.0&q=Kaipromenade%20%2C%20Makartsteg%20%C2%B7%205020%20Salzburg,47.801780700683594,13.042149543762207,,,,,,,
Atelier Thomas Selinger,Auerspergstraße 45 · 5020 Salzburg,https://www.bing.com/th?id=OLC.1Cw185ODAV20Ww480x360&pid=Local,https://www.bing.com/maps?cp=47.807613372802734%7E13.047500610351562&lvl=17.0&q=Atelier%20Thomas%20Selinger%20%2C%20Auerspergstra%C3%9Fe%2045%20%C2%B7%205020%20Salzburg,47.807613372802734,13.047500610351562,https://www.seli.at/,0676 5854902,seli@seli.at,,,,
Museum der Moderne Salzburg,"Wiener-Philharmoniker Gasse 9, Salzburg, Salzburg 5020",https://www.bing.com/th?id=OLC.iVYgtAI1LGa2qw480x360&pid=Local,https://www.bing.com/maps?cp=47.79824447631836%7E13.043288230895996&lvl=17.0&q=Museum%20der%20Moderne%20Salzburg%20%2C%20Wiener-Philharmoniker%20Gasse%209%2C%20Salzburg%2C%20Salzburg%205020,47.79824447631836,13.043288230895996,https://www.museumdermoderne.at/,0662 842220,info@salzburg.info,"{""instagram"":""https://www.instagram.com/museumdermodernesalzburg/"",""facebook"":""https://www.facebook.com/museumdermodernesalzburg/"",""linkedin"":""https://at.linkedin.com/company/museum-der-moderne-salzburg"",""youtube"":""https://www.youtube.com/channel/uczkkmh4vfxkrxv3cqgrcasq"",""twitter"":""https://twitter.com/mdmsalzburg""}",https://www.facebook.com/museumdermodernesalzburg/,https://www.instagram.com/museumdermodernesalzburg/,https://twitter.com/mdmsalzburg
Caldera Sculpture,"Makartplatz 7, 5020 Salzburg · 5020 Salzburg",https://www.bing.com/th?id=OLC.skyZSrMgh+DuhA480x360&pid=Local,https://www.bing.com/maps?cp=47.80275344848633%7E13.044096946716309&lvl=17.0&q=Caldera%20Sculpture%20%2C%20Makartplatz%207%2C%205020%20Salzburg%20%C2%B7%205020%20Salzburg,47.80275344848633,13.044096946716309,https://www.salzburg.info/en/b2b/gallery/walk-of-modern-art_image-280686,,"tourist@salzburg.info,marketing@salzburg.info,presse@salzburg.info,digital-media@salzburg.info,privacy@salzburg.info","{""facebook"":""https://www.facebook.com/policy.php"",""youtube"":""https://www.youtube.com/user/salzburginfo"",""instagram"":""https://instagram.com/about/legal/privacy/"",""twitter"":""https://twitter.com/de/privacy"",""pinterest"":""https://policy.pinterest.com/en/privacy-policy""}",https://www.facebook.com/policy.php,https://instagram.com/about/legal/privacy/,https://twitter.com/de/privacy
Gurken,"Max-Reinhardt-Platz, Furtwänglerpark · 5020 Salzburg",https://www.bing.com/th?id=OLC.9EPat+IdKDFphw480x360&pid=Local,https://www.bing.com/maps?cp=47.79825973510742%7E13.04248046875&lvl=17.0&q=Gurken%20%2C%20Max-Reinhardt-Platz%2C%20Furtw%C3%A4nglerpark%20%C2%B7%205020%20Salzburg,47.79825973510742,13.04248046875,https://www.salzburg.info/en/salzburg/creative-salzburg/art-in-public-room/walk-of-modern-art/gurken,,"tourist@salzburg.info,presse@salzburg.info,marketing@salzburg.info,digital-media@salzburg.info,privacy@salzburg.info","{""facebook"":""https://www.facebook.com/policy.php"",""youtube"":""https://www.youtube.com/user/salzburginfo"",""instagram"":""https://instagram.com/about/legal/privacy/"",""twitter"":""https://twitter.com/de/privacy"",""pinterest"":""https://policy.pinterest.com/en/privacy-policy""}",https://www.facebook.com/policy.php,https://instagram.com/about/legal/privacy/,https://twitter.com/de/privacy
Leon Einberger Atelier - Gallery,Mozartplatz 5 · 5020 Salzburg,https://www.bing.com/th?id=OLC.g/dS/5CB+9FlNQ480x360&pid=Local,https://www.bing.com/maps?cp=47.79912185668945%7E13.047900199890137&lvl=17.0&q=Leon%20Einberger%20Atelier%20-%20Gallery%20%2C%20Mozartplatz%205%20%C2%B7%205020%20Salzburg,47.79912185668945,13.047900199890137,https://www.gallery-mozartplatz.com/,0699 11882247,"einbergerleon@hotmail.com,office@salzburg-altstadt.at","{""facebook"":""https://www.facebook.com/galleryeinberger/""}",https://www.facebook.com/galleryeinberger/,,
Katakomben Salzburg,Petersfriedhof Salzburg,https://www.bing.com/th?id=OLC.g31QMesTQ5l41w480x360&pid=Local,https://www.bing.com/maps?cp=47.797019958496094%7E13.044258117675781&lvl=17.0&q=Katakomben%20Salzburg%20%2C%20Petersfriedhof%20Salzburg,47.797019958496094,13.044258117675781,,0662 844576,,,,,
Papagenobrunnen,"Papagenopl., Pfeifergasse · 5020 Salzburg",https://www.bing.com/th?id=OLC.smbnnWCJa3jQCQ480x360&pid=Local,https://www.bing.com/maps?cp=47.79829025268555%7E13.049539566040039&lvl=17.0&q=Papagenobrunnen%20%2C%20Papagenopl.%2C%20Pfeifergasse%20%C2%B7%205020%20Salzburg,47.79829025268555,13.049539566040039,,06543 72880,,"{""youtube"":""https://www.youtube.com/watch?v=haoe7qdz3ao""}",,,
Sigmundstor,Sigmundstor Salzburg,https://www.bing.com/th?id=OLC.YQGj8OxNuyJh6w480x360&pid=Local,https://www.bing.com/maps?cp=47.798370361328125%7E13.039119720458984&lvl=17.0&q=Sigmundstor%20%2C%20Sigmundstor%20Salzburg,47.798370361328125,13.039119720458984,,,,,,,
Traklhaus,Waagplatz 1a · 5020 Salzburg,https://www.bing.com/th?id=OLC.wUnczV7uhswJmA480x360&pid=Local,https://www.bing.com/maps?cp=47.79935836791992%7E13.047220230102539&lvl=17.0&q=Traklhaus%20%2C%20Waagplatz%201a%20%C2%B7%205020%20Salzburg,47.79935836791992,13.047220230102539,https://salzburg.gv.at/themen/kultur/foerdersparten/bildendekunst/traklhaus,0662 80422149,traklhaus@salzburg.gv.at,"{""youtube"":""https://www.youtube.com/watch"",""instagram"":""https://www.instagram.com/land_salzburg"",""facebook"":""https://www.facebook.com/landsalzburg/""}",https://www.facebook.com/landsalzburg/,https://www.instagram.com/land_salzburg,
Domgrabungsmuseum Salzburg,Mozartplatz 1 · 5010 Salzburg,https://www.bing.com/th?id=OLC.HUsZlXdXn2AwSQ480x360&pid=Local,https://www.bing.com/maps?cp=47.79873275756836%7E13.047554016113281&lvl=17.0&q=Domgrabungsmuseum%20Salzburg%20%2C%20Mozartplatz%201%20%C2%B7%205010%20Salzburg,47.79873275756836,13.047554016113281,http://salzburgmuseum.at/,0662 845295,office@salzburgmuseum.at,"{""facebook"":""https://www.facebook.com/salzburg.museum"",""youtube"":""https://www.youtube.com/channel/ucgraq9jpozen5w1ran3t1xq"",""instagram"":""https://www.instagram.com/salzburg_museum"",""twitter"":""https://www.twitter.com/salzburgmuseum""}",https://www.facebook.com/salzburg.museum,https://www.instagram.com/salzburg_museum,https://www.twitter.com/salzburgmuseum
Inneres Steintor,Steingasse 23 · 5020 Salzburg,https://www.bing.com/th?id=OLC.ONdwQ6Wwwq0hNw480x360&pid=Local,https://www.bing.com/maps?cp=47.80107498168945%7E13.046653747558594&lvl=17.0&q=Inneres%20Steintor%20%2C%20Steingasse%2023%20%C2%B7%205020%20Salzburg,47.80107498168945,13.046653747558594,https://www.sn.at/wiki/Inneres_Steintor,,"redaktion@sn.at,service@sn.at","{""facebook"":""https://www.facebook.com/pages/salzburgwiki/118355396728""}",https://www.facebook.com/pages/salzburgwiki/118355396728,,
Gstattentor,"Buergerspitalplatz 1, 5020 Salzburg · 5020 Salzburg",https://www.bing.com/th?id=OLC.me6euAaQq+meig480x360&pid=Local,https://www.bing.com/maps?cp=47.800201416015625%7E13.040329933166504&lvl=17.0&q=Gstattentor%20%2C%20Buergerspitalplatz%201%2C%205020%20Salzburg%20%C2%B7%205020%20Salzburg,47.800201416015625,13.040329933166504,,,,,,,
Gray Line Salzburg Sightseeing Tours,Mirabellplatz 2 · 5020 Salzburg,https://www.bing.com/th?id=OLC.HrKUJu/Trjv0uw480x360&pid=Local,https://www.bing.com/maps?cp=47.80450439453125%7E13.043781280517578&lvl=17.0&q=Gray%20Line%20Salzburg%20Sightseeing%20Tours%20%2C%20Mirabellplatz%202%20%C2%B7%205020%20Salzburg,47.80450439453125,13.043781280517578,https://www.salzburg-sightseeingtours.at/agb/,0662 881616,info@salzburg-sightseeingtours.at,"{""facebook"":""https://www.facebook.com/salzburgsightseeingtours/"",""pinterest"":""https://www.pinterest.at/salzburgsightseeing/"",""instagram"":""https://www.instagram.com/salzburgsightseeing/""}",https://www.facebook.com/salzburgsightseeingtours/,https://www.instagram.com/salzburgsightseeing/,
Basteiweg,Basteiweg · 5020 Salzburg,,https://www.bing.com/maps?cp=47.801490783691406%7E13.049996376037598&lvl=17.0&q=Basteiweg%20%2C%20Basteiweg%20%C2%B7%205020%20Salzburg,47.801490783691406,13.049996376037598,,,,,,,
Salzburg,Kapuzinerberg 6 · 5020 Salzburg,https://www.bing.com/th?id=OLC.e1LfY+TRplv9PA480x360&pid=Local,https://www.bing.com/maps?cp=47.80208206176758%7E13.047148704528809&lvl=17.0&q=Salzburg%20%2C%20Kapuzinerberg%206%20%C2%B7%205020%20Salzburg,47.80208206176758,13.047148704528809,https://www.salzburg.info/de/sehenswertes/kirchen-friedhoefe/kapuzinerkloster,0662 8735630,"info@salzburg.info,kapuzinerberg@stadt-salzburg.at,tourist@salzburg.info","{""facebook"":""https://www.bing.com/alink/link?url=https%3a%2f%2fwww.facebook.com%2fkapuzinerberg.zukunft.freihalten%2f&source=serp-local&h=mp5zzujkdo9olgycryy%2bdocde%2bo2ahsyaytnnssnbng%3d&p=lw_lec&ig=329f5f05476941cf9553e831884e17e0&ypid=yn9002x18060940026877826669"",""youtube"":""https://www.youtube.com/user/salzburginfo"",""instagram"":""https://www.instagram.com/visitsalzburg/""}",https://www.bing.com/alink/link?url=https%3a%2f%2fwww.facebook.com%2fkapuzinerberg.zukunft.freihalten%2f&source=serp-local&h=mp5zzujkdo9olgycryy%2bdocde%2bo2ahsyaytnnssnbng%3d&p=lw_lec&ig=329f5f05476941cf9553e831884e17e0&ypid=yn9002x18060940026877826669,https://www.instagram.com/visitsalzburg/,
Franziskanerkirche,Franziskanergasse / Sigmund Haffner Gasse · 5020 Salzburg,https://www.bing.com/th?id=OLC.waeMbAtWO/6OAw480x360&pid=Local,https://www.bing.com/maps?cp=47.79851150512695%7E13.04417610168457&lvl=17.0&q=Franziskanerkirche%20%2C%20Franziskanergasse%20%2F%20Sigmund%20Haffner%20Gasse%20%C2%B7%205020%20Salzburg,47.79851150512695,13.04417610168457,https://www.salzburg.info/en/sights/churches-cemeteries/franziskanerkirche,0662 843629,"tourist@salzburg.info,presse@salzburg.info,marketing@salzburg.info,digital-media@salzburg.info,privacy@salzburg.info,info@salzburg.info","{""facebook"":""https://www.facebook.com/policy.php"",""youtube"":""https://www.youtube.com/user/salzburginfo"",""instagram"":""https://instagram.com/about/legal/privacy/"",""twitter"":""https://twitter.com/de/privacy"",""pinterest"":""https://policy.pinterest.com/en/privacy-policy"",""yelp"":""https://www.yelp.com/biz/franziskanerkirche-salzburg""}",https://www.facebook.com/policy.php,https://instagram.com/about/legal/privacy/,https://twitter.com/de/privacy
Old City Hall (Altes Rathaus),Kranzlmarkt 1 · 5020 Salzburg,https://www.bing.com/th?id=OLC.7hjDuzZR7Xx1CA480x360&pid=Local,https://www.bing.com/maps?cp=47.80020523071289%7E13.044534683227539&lvl=17.0&q=Old%20City%20Hall%20(Altes%20Rathaus)%20%2C%20Kranzlmarkt%201%20%C2%B7%205020%20Salzburg,47.80020523071289,13.044534683227539,http://www.sarabubna.com/,04359 1335588,"photos@sarabubna.com,info@salzburg.info","{""facebook"":""https://www.facebook.com/sarabubnaphotography/"",""instagram"":""https://www.instagram.com/sara_bubna_/""}",https://www.facebook.com/sarabubnaphotography/,https://www.instagram.com/sara_bubna_/,
Universitätskirche,Universitatspl. Salzburg,https://www.bing.com/th?id=OLC.AoijPuDRqHNUIA480x360&pid=Local,https://www.bing.com/maps?cp=47.799530029296875%7E13.042329788208008&lvl=17.0&q=Universit%C3%A4tskirche%20%2C%20Universitatspl.%20Salzburg,47.799530029296875,13.042329788208008,,0662 84132772,info@salzburg.info,,,,
DomQuartier Salzburg Museum,Mozartplatz 10Postfach/527 · 5010 Salzburg,https://www.bing.com/th?id=OLC.KRQodqjjHrMNqg480x360&pid=Local,https://www.bing.com/maps?cp=47.79872512817383%7E13.048358917236328&lvl=17.0&q=DomQuartier%20Salzburg%20Museum%20%2C%20Mozartplatz%2010Postfach%2F527%20%C2%B7%205010%20Salzburg,47.79872512817383,13.048358917236328,https://www.domquartier.at/,0662 80422109,office@domquartier.at,"{""facebook"":""https://www.facebook.com/domquartier/"",""youtube"":""https://www.youtube.com/channel/ucfwzng_llavdc7jtn6rwssw"",""instagram"":""https://www.instagram.com/domquartier/"",""twitter"":""https://www.twitter.com/omquartier""}",https://www.facebook.com/domquartier/,https://www.instagram.com/domquartier/,https://www.twitter.com/omquartier
Bibelwelt Erlebnismuseum,Plainstrasse 42/A · 5020 Salzburg,https://www.bing.com/th?id=OLC.7xA+94ZAjKlWow480x360&pid=Local,https://www.bing.com/maps?cp=47.814788818359375%7E13.04069995880127&lvl=17.0&q=Bibelwelt%20Erlebnismuseum%20%2C%20Plainstrasse%2042%2FA%20%C2%B7%205020%20Salzburg,47.814788818359375,13.04069995880127,https://bibelwelt.at/,0676 87467080,"bibelwelt.at@gmail.com,info@salzburg.info","{""facebook"":""https://www.facebook.com/bibelwelt/"",""instagram"":""https://www.instagram.com/bibelweltsalzburg/"",""twitter"":""https://twitter.com/bibelwelt_s""}",https://www.facebook.com/bibelwelt/,https://www.instagram.com/bibelweltsalzburg/,https://twitter.com/bibelwelt_s
Walking TOUR,"Schwarzstraße 1, Salzburg, Salzburg 5020",https://www.bing.com/th?id=OLC.AXFNVqfigXjriA480x360&pid=Local,https://www.bing.com/maps?cp=47.80162811279297%7E13.044317245483398&lvl=17.0&q=Walking%20TOUR%20%2C%20Schwarzstra%C3%9Fe%201%2C%20Salzburg%2C%20Salzburg%205020,47.80162811279297,13.044317245483398,https://freewalkingtoursalzburg.com/,0699 17799991,"team@freewalkingtoursalzburg.com,gerhard@freewalkingtoursalzburg.com","{""facebook"":""https://www.facebook.com/kaffeealchemie?lang=en"",""youtube"":""https://www.youtube.com/@freewalkingtoursalzburg"",""instagram"":""https://help.instagram.com/155833707900388""}",https://www.facebook.com/kaffeealchemie?lang=en,https://help.instagram.com/155833707900388,
Margarethen Kapelle,Sankt-Peter-Bezirk · 5020 Salzburg,https://www.bing.com/th?id=OLC.wyF0Z2UIa+V/Sg480x360&pid=Local,https://www.bing.com/maps?cp=47.79655838012695%7E13.04563045501709&lvl=17.0&q=Margarethen%20Kapelle%20%2C%20Sankt-Peter-Bezirk%20%C2%B7%205020%20Salzburg,47.79655838012695,13.04563045501709,http://stift-stpeter.at/de/friedhof/index.asp?dat=Margarethenkapelle,,,,,,
Erhardkirche,Nonntaler Hauptstrasse 11 · 5020 Salzburg,https://www.bing.com/th?id=OLC.a7gbXUpkXiwnVg480x360&pid=Local,https://www.bing.com/maps?cp=47.79545974731445%7E13.052140235900879&lvl=17.0&q=Erhardkirche%20%2C%20Nonntaler%20Hauptstrasse%2011%20%C2%B7%205020%20Salzburg,47.79545974731445,13.052140235900879,http://salzburg-rundgang.at/sehenswuerdigkeiten/kirchen_und_kloester/erhardkirche,0662 843642,museum.service@mozarteum.at,"{""facebook"":""https://www.facebook.com/vividplanet/"",""instagram"":""https://www.instagram.com/vividplanetsoftware/"",""linkedin"":""https://www.linkedin.com/company/vivid-planet-software-gmbh/""}",https://www.facebook.com/vividplanet/,https://www.instagram.com/vividplanetsoftware/,
Radfahrer,Makartsteg · 5020 Salzburg,https://www.bing.com/th?id=OLC.80WNyJ//3U4ovg480x360&pid=Local,https://www.bing.com/maps?cp=47.801780700683594%7E13.042149543762207&lvl=17.0&q=Radfahrer%20%2C%20Makartsteg%20%C2%B7%205020%20Salzburg,47.801780700683594,13.042149543762207,https://www.salzburg.info/de/salzburg/creative-salzburg/kunst-im-oeffentlichen-raum/weitere-Strassenkunst/radfahrer,,"cards@salzburg.info,tourist@salzburg.info","{""youtube"":""https://www.youtube.com/user/salzburginfo"",""facebook"":""https://www.facebook.com/salzburg"",""instagram"":""https://www.instagram.com/visitsalzburg/""}",https://www.facebook.com/salzburg,https://www.instagram.com/visitsalzburg/,
St. Blasius Church,"Buergerspitalgasse 2, 5020 Salzburg · 5020 Salzburg",https://www.bing.com/th?id=OLC.fZolRfT+JdDObw480x360&pid=Local,https://www.bing.com/maps?cp=47.80010223388672%7E13.039755821228027&lvl=17.0&q=St.%20Blasius%20Church%20%2C%20Buergerspitalgasse%202%2C%205020%20Salzburg%20%C2%B7%205020%20Salzburg,47.80010223388672,13.039755821228027,https://www.stadt-salzburg.at/internet/bildung_kultur/altstadt_und_tourismus/historische_stadt/kirchen_der_stadt_321815/st_blasius_kirche_321819/st_blasius_kirche_ehemalige_buergerspita_211131.htm,,"betriebe@stadt-salzburg.at,wahlamt@stadt-salzburg.at,rechnung.kultur-bildung@salzburg.gv.at",,,,
Salzburger Dom,Kapitelplatz 1 · 5020 Salzburg,https://www.bing.com/th?id=OLC.4W1clA4MJ+aXNA480x360&pid=Local,https://www.bing.com/maps?cp=47.79737091064453%7E13.04706859588623&lvl=17.0&q=Salzburger%20Dom%20%2C%20Kapitelplatz%201%20%C2%B7%205020%20Salzburg,47.79737091064453,13.04706859588623,https://www.salzburger-dom.at/home,0662 80477950,"barbara.kirchgasser@zentrale.kirchen.net,domsakristei@zentrale.kirchen.net","{""instagram"":""https://www.instagram.com/domzusalzburg"",""facebook"":""https://www.facebook.com/domzusalzburg/""}",https://www.facebook.com/domzusalzburg/,https://www.instagram.com/domzusalzburg,
Stefan Zweig Centre Salzburg,"Moenchsberg 2, Edmundsburg · 5020 Salzburg",https://www.bing.com/th?id=OLC.NsNUr8fN9qdDvQ480x360&pid=Local,https://www.bing.com/maps?cp=47.797279357910156%7E13.041950225830078&lvl=17.0&q=Stefan%20Zweig%20Centre%20Salzburg%20%2C%20Moenchsberg%202%2C%20Edmundsburg%20%C2%B7%205020%20Salzburg,47.797279357910156,13.041950225830078,https://stefan-zweig-zentrum.at/,0662 80447641,"stefan-zweig-centre@sbg.ac.at,office@stefan-zweig-zentrum.at",,,,
Bavarian Mountains and Salt Mines Tour,"Hubert-Sattler-Gasse 1, Panorama Busterminal Mirabellplatz · 5020 Salzburg",https://www.bing.com/th?id=OLC.hFi1KyKSOXag6g480x360&pid=Local,https://www.bing.com/maps?cp=47.80672836303711%7E13.042739868164062&lvl=17.0&q=Bavarian%20Mountains%20and%20Salt%20Mines%20Tour%20%2C%20Hubert-Sattler-Gasse%201%2C%20Panorama%20Busterminal%20Mirabellplatz%20%C2%B7%205020%20Salzburg,47.80672836303711,13.042739868164062,http://www.panoramatours.com/en/salzburg/tour/tour-3a-salt-mines-tour-salzburg-8/,0662 874029,"office@panoramatours.com,8832110office@panoramatours.com","{""facebook"":""https://www.facebook.com/salzburgpanoramatours"",""instagram"":""https://www.instagram.com/panorama_tours/"",""pinterest"":""https://www.pinterest.at/salzburgpanoramatours/salzburg-panorama-tours/""}",https://www.facebook.com/salzburgpanoramatours,https://www.instagram.com/panorama_tours/,
Prime Tours,"Mirabellplatz, Next to Main Entrance of Mirabell Palace · 5020 Salzburg",https://www.bing.com/th?id=OLC.sTX2V9YYuCu3gA480x360&pid=Local,https://www.bing.com/maps?cp=47.80519485473633%7E13.043143272399902&lvl=17.0&q=Prime%20Tours%20%2C%20Mirabellplatz%2C%20Next%20to%20Main%20Entrance%20of%20Mirabell%20Palace%20%C2%B7%205020%20Salzburg,47.80519485473633,13.043143272399902,https://primetours.at/,0670 2061787,,"{""facebook"":""https://www.facebook.com/policy/cookies"",""instagram"":""https://www.instagram.com/prime_tours_vienna/"",""youtube"":""https://www.youtube.com/user/clinzi1""}",https://www.facebook.com/policy/cookies,https://www.instagram.com/prime_tours_vienna/,
Sound of Music World,Getreidegasse 47 · 5020 Salzburg,https://www.bing.com/th?id=OLC.tXhqsPArscr9Eg480x360&pid=Local,https://www.bing.com/maps?cp=47.80000305175781%7E13.04032039642334&lvl=17.0&q=Sound%20of%20Music%20World%20%2C%20Getreidegasse%2047%20%C2%B7%205020%20Salzburg,47.80000305175781,13.04032039642334,https://www.salzburg.info/en/salzburg/the-sound-of-music,0662 84269014,"tourist@salzburg.info,presse@salzburg.info,marketing@salzburg.info,digital-media@salzburg.info,privacy@salzburg.info,cards@salzburg.info","{""facebook"":""https://www.facebook.com/policy.php"",""youtube"":""https://www.youtube.com/user/salzburginfo"",""instagram"":""https://instagram.com/about/legal/privacy/"",""twitter"":""https://twitter.com/de/privacy"",""pinterest"":""https://policy.pinterest.com/en/privacy-policy""}",https://www.facebook.com/policy.php,https://instagram.com/about/legal/privacy/,https://twitter.com/de/privacy
Burgerwehr Monchsberg,"Moenchsberg 19, 5020 Salzburg · 5020 Salzburg",https://www.bing.com/th?id=OLC.CSWinVBltPbsqQ480x360&pid=Local,https://www.bing.com/maps?cp=47.79903030395508%7E13.038780212402344&lvl=17.0&q=Burgerwehr%20Monchsberg%20%2C%20Moenchsberg%2019%2C%205020%20Salzburg%20%C2%B7%205020%20Salzburg,47.79903030395508,13.038780212402344,,,,,,,
Haus im Furtwänglerpark,Wiener-Philharmoniker-G 2 Salzburg,,https://www.bing.com/maps?cp=47.7988395690918%7E13.04245376586914&lvl=17.0&q=Haus%20im%20Furtw%C3%A4nglerpark%20%2C%20Wiener-Philharmoniker-G%202%20Salzburg,47.7988395690918,13.04245376586914,,,,,,,
Wilder-Mann-Brunnen,Max-Reinhardt-Platz · 5020 Salzburg,https://www.bing.com/th?id=OLC.WkoqO+cl+3QR1Q480x360&pid=Local,https://www.bing.com/maps?cp=47.822811126708984%7E13.040550231933594&lvl=17.0&q=Wilder-Mann-Brunnen%20%2C%20Max-Reinhardt-Platz%20%C2%B7%205020%20Salzburg,47.822811126708984,13.040550231933594,,,,,,,
St. Georgs Kirche,Moenchsberg 34 · 5020 Salzburg,https://www.bing.com/th?id=OLC.bs/2AAYIbCVZiA480x360&pid=Local,https://www.bing.com/maps?cp=47.795230865478516%7E13.047369956970215&lvl=17.0&q=St.%20Georgs%20Kirche%20%2C%20Moenchsberg%2034%20%C2%B7%205020%20Salzburg,47.795230865478516,13.047369956970215,http://www.salzburg-rundgang.at/sehenswuerdigkeiten/burgen_und_schloesser/festung_hohensalzburg/details/st_georgs_kirche,06214 20820,"museum.service@mozarteum.at,office@domquartier.at","{""facebook"":""https://www.facebook.com/vividplanet/"",""instagram"":""https://www.instagram.com/vividplanetsoftware/"",""linkedin"":""https://www.linkedin.com/company/vivid-planet-software-gmbh/""}",https://www.facebook.com/vividplanet/,https://www.instagram.com/vividplanetsoftware/,
Freyschloessl - Roter Turm,Moenchsberg 15 · 5020 Salzburg,https://www.bing.com/th?id=OLC.i54tdHRdwVpBmA480x360&pid=Local,https://www.bing.com/maps?cp=47.795318603515625%7E13.043432235717773&lvl=17.0&q=Freyschloessl%20-%20Roter%20Turm%20%2C%20Moenchsberg%2015%20%C2%B7%205020%20Salzburg,47.795318603515625,13.043432235717773,,,,,,,
CS Galerie,Kaigasse 27 · 5020 Salzburg,,https://www.bing.com/maps?cp=47.7972412109375%7E13.049220085144043&lvl=17.0&q=CS%20Galerie%20%2C%20Kaigasse%2027%20%C2%B7%205020%20Salzburg,47.7972412109375,13.049220085144043,https://www.csgalerie.com/,0676 7225357,"info@csgalerie.com,yongchen@aon.at",,,,
Catacombe Del Cimitero Di San Pietro,Sankt-Peter-Bezirk · 5020 Salzburg,https://www.bing.com/th?id=OLC.EmXtTAfJSR67rA480x360&pid=Local,https://www.bing.com/maps?cp=47.79655838012695%7E13.04563045501709&lvl=17.0&q=Catacombe%20Del%20Cimitero%20Di%20San%20Pietro%20%2C%20Sankt-Peter-Bezirk%20%C2%B7%205020%20Salzburg,47.79655838012695,13.04563045501709,,0662 8445760,,,,,
St Markus Church,Franz-Josef-Kai 21 · 5020 Salzburg,https://www.bing.com/th?id=OLC.dwEDUYjteyKaow480x360&pid=Local,https://www.bing.com/maps?cp=47.80215072631836%7E13.038749694824219&lvl=17.0&q=St%20Markus%20Church%20%2C%20Franz-Josef-Kai%2021%20%C2%B7%205020%20Salzburg,47.80215072631836,13.038749694824219,https://ukrainische-kirche.at/,0662 849664,,"{""facebook"":""https://www.facebook.com/events/834857461793304/?ref=newsfeed""}",https://www.facebook.com/events/834857461793304/?ref=newsfeed,,
Connection Sculpture,"Mozartplatz 7, 5020 Salzburg · 5020 Salzburg",https://www.bing.com/th?id=OLC.U4bEqeavUadoTA480x360&pid=Local,https://www.bing.com/maps?cp=47.79922866821289%7E13.04850959777832&lvl=17.0&q=Connection%20Sculpture%20%2C%20Mozartplatz%207%2C%205020%20Salzburg%20%C2%B7%205020%20Salzburg,47.79922866821289,13.04850959777832,,,,,,,
MoenchsbergAufzug,Gstaettengasse 13 · 5020 Salzburg,https://www.bing.com/th?id=OLC.DsJB/OzEKwO2Lg480x360&pid=Local,https://www.bing.com/maps?cp=47.800899505615234%7E13.038979530334473&lvl=17.0&q=MoenchsbergAufzug%20%2C%20Gstaettengasse%2013%20%C2%B7%205020%20Salzburg,47.800899505615234,13.038979530334473,,0662 88849700,,,,,
Art Gallery,Kaigasse 18 · 5020 Salzburg,https://www.bing.com/th?id=OLC.z52EFEHWMhgfOg480x360&pid=Local,https://www.bing.com/maps?cp=47.797119140625%7E13.049161911010742&lvl=17.0&q=Art%20Gallery%20%2C%20Kaigasse%2018%20%C2%B7%205020%20Salzburg,47.797119140625,13.049161911010742,https://www.l-art.at/,0662 879119,,"{""facebook"":""https://www.facebook.com/galerielart/"",""instagram"":""https://www.instagram.com/l_art_galerie/"",""youtube"":""https://www.youtube.com/channel/ucqljjh2arguhiy1svvqlvuw""}",https://www.facebook.com/galerielart/,https://www.instagram.com/l_art_galerie/,
Amalie-Redlich-Turm,Mönchsberg 32 Salzburg,https://www.bing.com/th?id=OLC.i9vAwhNv3JFHkg480x360&pid=Local,https://www.bing.com/maps?cp=47.80067443847656%7E13.03797435760498&lvl=17.0&q=Amalie-Redlich-Turm%20%2C%20M%C3%B6nchsberg%2032%20Salzburg,47.80067443847656,13.03797435760498,http://www.museumdermoderne.at/,0662 842220,"info@mdmsalzburg.at,info@museumdermoderne.at","{""instagram"":""https://www.instagram.com/museumdermodernesalzburg/"",""facebook"":""https://www.facebook.com/museumdermodernesalzburg/"",""linkedin"":""https://at.linkedin.com/company/museum-der-moderne-salzburg"",""youtube"":""https://www.youtube.com/channel/uczkkmh4vfxkrxv3cqgrcasq"",""twitter"":""https://twitter.com/mdmsalzburg""}",https://www.facebook.com/museumdermodernesalzburg/,https://www.instagram.com/museumdermodernesalzburg/,https://twitter.com/mdmsalzburg
Museum Kunst Der Verlorenen Generation,"Sigmund-Haffner-Gasse 12, 1. Stock · 5020 Salzburg",https://www.bing.com/th?id=OLC.S/ZwhjEiIUwY4w480x360&pid=Local,https://www.bing.com/maps?cp=47.799190521240234%7E13.044010162353516&lvl=17.0&q=Museum%20Kunst%20Der%20Verlorenen%20Generation%20%2C%20Sigmund-Haffner-Gasse%2012%2C%201.%20Stock%20%C2%B7%205020%20Salzburg,47.799190521240234,13.044010162353516,https://verlorene-generation.com/museum/,0662 276231,museum@verlorene-generation.com,"{""instagram"":""https://www.instagram.com/museumverlorenegeneration/"",""facebook"":""https://www.facebook.com/museumkunstderverlorenengeneration/""}",https://www.facebook.com/museumkunstderverlorenengeneration/,https://www.instagram.com/museumverlorenegeneration/,
Schloss Hellbrunn,Fuerstenweg 37 · 5020 Salzburg,https://www.bing.com/th?id=OLC.dotrV/MdcRsmAg480x360&pid=Local,https://www.bing.com/maps?cp=47.76213073730469%7E13.060239791870117&lvl=17.0&q=Schloss%20Hellbrunn%20%2C%20Fuerstenweg%2037%20%C2%B7%205020%20Salzburg,47.76213073730469,13.060239791870117,https://www.hellbrunn.at/,0662 8203720,"info@hellbrunn.at,info@salzburg.info,office@salzburgmuseum.at","{""facebook"":""https://www.facebook.com/hellbrunn/"",""instagram"":""https://www.instagram.com/schloss_hellbrunn/"",""youtube"":""https://www.youtube.com/watch?v=bs9qhgnxpd8"",""yelp"":""https://www.yelp.com/biz/schloss-hellbrunn-schlosspark-hellbrunn-salzburg""}",https://www.facebook.com/hellbrunn/,https://www.instagram.com/schloss_hellbrunn/,
Gstattengasse,Gstättengasse · 5020 Salzburg,https://www.bing.com/th?id=OLC.PxQ1WdMzmmb1og480x360&pid=Local,https://www.bing.com/maps?cp=47.8013916015625%7E13.038820266723633&lvl=17.0&q=Gstattengasse%20%2C%20Gst%C3%A4ttengasse%20%C2%B7%205020%20Salzburg,47.8013916015625,13.038820266723633,,0662 846898,,,,,
Müllner Kirche,Augustinergasse 4 · 5020 Salzburg,https://www.bing.com/th?id=OLC.7yPtp/pF/VxuEw480x360&pid=Local,https://www.bing.com/maps?cp=47.80548858642578%7E13.0346097946167&lvl=17.0&q=M%C3%BCllner%20Kirche%20%2C%20Augustinergasse%204%20%C2%B7%205020%20Salzburg,47.80548858642578,13.0346097946167,,0662 432671,,,,,
Salzburg Congress,Auerspergstrasse 6 · 5020 Salzburg,https://www.bing.com/th?id=OLC.rULucQWxnDHMfw480x360&pid=Local,https://www.bing.com/maps?cp=47.80698776245117%7E13.04157543182373&lvl=17.0&q=Salzburg%20Congress%20%2C%20Auerspergstrasse%206%20%C2%B7%205020%20Salzburg,47.80698776245117,13.04157543182373,https://www.salzburgcongress.at/de,0662 889870,Service@salzburgcongress.at,"{""linkedin"":""https://www.linkedin.com/company/salzburgcongress/""}",,,
Schloss Fürberg,Salzburg,,https://www.bing.com/maps?cp=47.80354690551758%7E13.062455177307129&lvl=17.0&q=Schloss%20F%C3%BCrberg%20%2C%20Salzburg,47.80354690551758,13.062455177307129,,,,,,,
Mozarteum,Schwarzstrasse 26 · 5020 Salzburg,https://www.bing.com/th?id=OLC.xoVtZmZQg7J2Cw480x360&pid=Local,https://www.bing.com/maps?cp=47.80363082885742%7E13.04160213470459&lvl=17.0&q=Mozarteum%20%2C%20Schwarzstrasse%2026%20%C2%B7%205020%20Salzburg,47.80363082885742,13.04160213470459,http://schauspiel.moz.ac.at/,0662 8894030,"rosa.batteg@moz.ac.at,schauspiel@moz.ac.at","{""instagram"":""https://www.instagram.com/mozarteumuniversity"",""facebook"":""https://www.facebook.com/mozarteum.university"",""youtube"":""https://www.youtube.com/c/unimozarteumsalzburg""}",https://www.facebook.com/mozarteum.university,https://www.instagram.com/mozarteumuniversity,
Reckturm,"Hohensalzburg, Monchsberg 34 · 5020 Salzburg",,https://www.bing.com/maps?cp=47.795074462890625%7E13.046520233154297&lvl=17.0&q=Reckturm%20%2C%20Hohensalzburg%2C%20Monchsberg%2034%20%C2%B7%205020%20Salzburg,47.795074462890625,13.046520233154297,,,,,,,
Fine Art Management Gmbh,Kaigasse 11 · 5020 Salzburg,,https://www.bing.com/maps?cp=47.7979621887207%7E13.048650741577148&lvl=17.0&q=Fine%20Art%20Management%20Gmbh%20%2C%20Kaigasse%2011%20%C2%B7%205020%20Salzburg,47.7979621887207,13.048650741577148,,0662 848068,,,,,
Stadtgalerie Museum Pavillion,Bernhard-Paumgartner-Weg 5020 Salzburg,https://www.bing.com/th?id=OLC.iuAJ15cWdufwYA480x360&pid=Local,https://www.bing.com/maps?cp=47.80598449707031%7E13.04183292388916&lvl=17.0&q=Stadtgalerie%20Museum%20Pavillion%20%2C%20Bernhard-Paumgartner-Weg%205020%20Salzburg,47.80598449707031,13.04183292388916,,,,"{""facebook"":""https://www.facebook.com/mozarteum.university"",""instagram"":""https://www.instagram.com/mozarteumuniversity"",""youtube"":""https://www.youtube.com/c/unimozarteumsalzburg""}",https://www.facebook.com/mozarteum.university,https://www.instagram.com/mozarteumuniversity,
Schloss Leopoldskron,Leopoldskronstrasse 56-58 · 5020 Salzburg,https://www.bing.com/th?id=OLC.b2TsibJUaMvJ6g480x360&pid=Local,https://www.bing.com/maps?cp=47.788917541503906%7E13.039177894592285&lvl=17.0&q=Schloss%20Leopoldskron%20%2C%20Leopoldskronstrasse%2056-58%20%C2%B7%205020%20Salzburg,47.788917541503906,13.039177894592285,https://www.schloss-leopoldskron.com/en/,0662 83983,"reception@schlossleopoldskron.com,info@salzburg.info","{""instagram"":""https://www.instagram.com/schlossleopoldskron/"",""facebook"":""https://www.facebook.com/visitsalzburgerland/videos/schloss-leopoldskron-aus-der-vogelperspektive/502935143877232/"",""linkedin"":""https://www.linkedin.com/company/hotel-schloss-leopoldskron""}",https://www.facebook.com/visitsalzburgerland/videos/schloss-leopoldskron-aus-der-vogelperspektive/502935143877232/,https://www.instagram.com/schlossleopoldskron/,
Salzburg Hauptbahnhof,Südtiroler Platz 1 · 5020 Salzburg,https://www.bing.com/th?id=OLC.Za0X+0255lvtkw480x360&pid=Local,https://www.bing.com/maps?cp=47.81312942504883%7E13.045160293579102&lvl=17.0&q=Salzburg%20Hauptbahnhof%20%2C%20S%C3%BCdtiroler%20Platz%201%20%C2%B7%205020%20Salzburg,47.81312942504883,13.045160293579102,https://www.salzburg.info,0517 17,"tourist@salzburg.info,1010，Hohenstaufengasse3号，dsb@dsb.gv.at,dsb@dsb.gv.at,privacy@salzburg.info","{""facebook"":""https://www.facebook.com/policy.php"",""youtube"":""https://www.youtube.com/user/salzburginfo"",""instagram"":""https://instagram.com/about/legal/privacy/"",""twitter"":""http://twitter.com/account/settings"",""pinterest"":""https://about.pinterest.com/de/privacy-policy""}",https://www.facebook.com/policy.php,https://instagram.com/about/legal/privacy/,http://twitter.com/account/settings
Stiegl Brauwelt,Bräuhausstraße 9 · 5020 Salzburg,https://www.bing.com/th?id=OLC.KFXG9roeDr3UfQ480x360&pid=Local,https://www.bing.com/maps?cp=47.79371643066406%7E13.021374702453613&lvl=17.0&q=Stiegl%20Brauwelt%20%2C%20Br%C3%A4uhausstra%C3%9Fe%209%20%C2%B7%205020%20Salzburg,47.79371643066406,13.021374702453613,https://www.brauwelt.at/,050 1492 1492,brauwelt@stiegl.at,"{""youtube"":""https://www.youtube.com/user/stieglbrauerei"",""instagram"":""https://www.instagram.com/stieglbrauwelt/"",""facebook"":""https://www.facebook.com/brauwelt/"",""twitter"":""https://twitter.com/stieglbrauerei""}",https://www.facebook.com/brauwelt/,https://www.instagram.com/stieglbrauwelt/,https://twitter.com/stieglbrauerei
Schlosstaverne Kromp,Stelzhamerstraße 2 · 5020 Salzburg,,https://www.bing.com/maps?cp=47.80669021606445%7E13.048314094543457&lvl=17.0&q=Schlosstaverne%20Kromp%20%2C%20Stelzhamerstra%C3%9Fe%202%20%C2%B7%205020%20Salzburg,47.80669021606445,13.048314094543457,,,,,,,
Salzburger Wehrgeschichtliches Museum,Moosstraße 1-3 · 5020 Salzburg,,https://www.bing.com/maps?cp=47.797462463378906%7E13.030695915222168&lvl=17.0&q=Salzburger%20Wehrgeschichtliches%20Museum%20%2C%20Moosstra%C3%9Fe%201-3%20%C2%B7%205020%20Salzburg,47.797462463378906,13.030695915222168,https://www.salzburg-wehrgeschichte.at/,050 2018 044123,info@salzburg-wehrgeschichte.at,,,,
Sound of Music Hotel,,,,47.79560852050781,13.047378540039062,https://www.salzburg.info/,0662 6208080,"tourist@salzburg.info,presse@salzburg.info,marketing@salzburg.info,digital-media@salzburg.info,privacy@salzburg.info,info@salzburg.info,cards@salzburg.info,1010，Hohenstaufengasse3号，dsb@dsb.gv.at,dsb@dsb.gv.at","{""facebook"":""https://www.facebook.com/about/privacy"",""youtube"":""https://www.youtube.com/user/salzburginfo"",""instagram"":""https://instagram.com/about/legal/privacy/"",""twitter"":""https://support.twitter.com/articles/20171528"",""pinterest"":""https://about.pinterest.com/de/privacy-policy""}",https://www.facebook.com/about/privacy,https://instagram.com/about/legal/privacy/,https://support.twitter.com/articles/20171528
Getreidegasse,Getreidegasse 8 · 5020 Salzburg,https://www.bing.com/th?id=OLC.7B24GXYkQObEoA480x360&pid=Local,https://www.bing.com/maps?cp=47.800201416015625%7E13.043704986572266&lvl=17.0&q=Getreidegasse%20%2C%20Getreidegasse%208%20%C2%B7%205020%20Salzburg,47.800201416015625,13.043704986572266,https://at.ecco.com/de-AT,0662 840873,"legal@ecco.com,kundenbetreuung.at@eu.ecco.com","{""instagram"":""http://instagram.com/ecco"",""facebook"":""https://www.facebook.com/about/privacy"",""youtube"":""http://www.youtube.com/eccosko"",""pinterest"":""https://www.pinterest.com/eccoshoes/"",""linkedin"":""http://linkedin.com/company/ecco-sko-as""}",https://www.facebook.com/about/privacy,http://instagram.com/ecco,
Kupelwieser-Schlossl,Moenchsberg 17 · 5020 Salzburg,https://www.bing.com/th?id=OLC.6d3XGhO0kDqH2A480x360&pid=Local,https://www.bing.com/maps?cp=47.79444885253906%7E13.039889335632324&lvl=17.0&q=Kupelwieser-Schlossl%20%2C%20Moenchsberg%2017%20%C2%B7%205020%20Salzburg,47.79444885253906,13.039889335632324,,,,,,,
Domplatz Market,Residenzplatz 1 · 5020 Salzburg,https://www.bing.com/th?id=OLC.OJ9Wby15ySA+rA480x360&pid=Local,https://www.bing.com/maps?cp=47.79780197143555%7E13.045975685119629&lvl=17.0&q=Domplatz%20Market%20%2C%20Residenzplatz%201%20%C2%B7%205020%20Salzburg,47.79780197143555,13.045975685119629,https://christkindlmarkt.co.at/,0664 1091491,"lackner@christkindlmarkt.co.at,office@salzburg-altstadt.at,info@christkindlmarkt.co.at","{""facebook"":""https://www.facebook.com/salzburgerchristkindlmarkt/"",""instagram"":""https://www.instagram.com/salzburgerchristkindlmarkt/?hl=de"",""youtube"":""https://www.youtube.com/user/salzburgerchristkind""}",https://www.facebook.com/salzburgerchristkindlmarkt/,https://www.instagram.com/salzburgerchristkindlmarkt/?hl=de,
Hangar-7,"Wilhelm-Spazier-Strasse, 7A, Red Bull Hangar-7 · 5020 Salzburg",https://www.bing.com/th?id=OLC.2U6/QEXixLYGtw480x360&pid=Local,https://www.bing.com/maps?cp=47.79365921020508%7E13.007564544677734&lvl=17.0&q=Hangar-7%20%2C%20Wilhelm-Spazier-Strasse%2C%207A%2C%20Red%20Bull%20Hangar-7%20%C2%B7%205020%20Salzburg,47.79365921020508,13.007564544677734,https://www.hangar-7.com/de/,0662 2197,"willkommen@hangar-7.com,privacy-hangar7@redbull.com","{""facebook"":""http://www.facebook.com/privacy/policies/cookies/"",""instagram"":""http://privacycenter.instagram.com/policy/?entry_point=ig_help_center_data_policy_redirect"",""spotify"":""http://www.spotify.com/at/legal/privacy-policy/"",""twitter"":""https://gdpr.twitter.com/en/controller-to-controller-transfers.html""}",http://www.facebook.com/privacy/policies/cookies/,http://privacycenter.instagram.com/policy/?entry_point=ig_help_center_data_policy_redirect,https://gdpr.twitter.com/en/controller-to-controller-transfers.html
Gewerbepark Urstein Beteiligungs,Schillerstr. 30 · 5020 Salzburg,,https://www.bing.com/maps?cp=47.80253982543945%7E13.04193115234375&lvl=17.0&q=Gewerbepark%20Urstein%20Beteiligungs%20%2C%20Schillerstr.%2030%20%C2%B7%205020%20Salzburg,47.80253982543945,13.04193115234375,,07612 799577,,,,,
Grunmarkt,Universitätsplatz · 5020 Salzburg,https://www.bing.com/th?id=OLC.buYb+7ciOsr8nw480x360&pid=Local,https://www.bing.com/maps?cp=47.79945755004883%7E13.043411254882812&lvl=17.0&q=Grunmarkt%20%2C%20Universit%C3%A4tsplatz%20%C2%B7%205020%20Salzburg,47.79945755004883,13.043411254882812,http://www.stadt-salzburg.at/internet/wirtschaft_umwelt/wirtschaft_gewerbe/maerkte_marktaufsicht/gruenmarkt_322657/gruenmarkt_322739.htm,0662 8432630,"post@stadt-salzburg.at,betriebe@stadt-salzburg.at,wahlamt@stadt-salzburg.at,rechnung.kultur-bildung@salzburg.gv.at",,,,
"Kaiser Karl, der Sagenhafte",Max-Ott-Platz 6 · 5020 Salzburg,,https://www.bing.com/maps?cp=47.808231353759766%7E13.041046142578125&lvl=17.0&q=Kaiser%20Karl%2C%20der%20Sagenhafte%20%2C%20Max-Ott-Platz%206%20%C2%B7%205020%20Salzburg,47.808231353759766,13.041046142578125,,0662 877688,,,,,
Petersfriedhof,Sankt-Peter-Bezirk 1 · 5020 Salzburg,https://www.bing.com/th?id=OLC.5HexyKDPRzxOTg480x360&pid=Local,https://www.bing.com/maps?cp=47.79673385620117%7E13.045256614685059&lvl=17.0&q=Petersfriedhof%20%2C%20Sankt-Peter-Bezirk%201%20%C2%B7%205020%20Salzburg,47.79673385620117,13.045256614685059,https://www.stift-stpeter.at/,0662 8445760,"oeli@liturgie.at,mariaplain@erzabtei.at,stiftskirche@erzabtei.at,kolleg@benediktiner.at",,,,
AYA Bad,Alpenstrasse 9 · 5020 Salzburg,https://www.bing.com/th?id=OLC.bGOKbRm27deqwQ480x360&pid=Local,https://www.bing.com/maps?cp=47.79133224487305%7E13.06380844116211&lvl=17.0&q=AYA%20Bad%20%2C%20Alpenstrasse%209%20%C2%B7%205020%20Salzburg,47.79133224487305,13.06380844116211,https://www.stadt-salzburg.at/freibaeder-und-hallenbaeder/,0662 620832,"betriebe@stadt-salzburg.at,post@stadt-salzburg.at,wahlamt@stadt-salzburg.at",,,,
Evangelische Christuskirche,Schwarzstrasse 25 · 5020 Salzburg,https://www.bing.com/th?id=OLC.tFZh7D1589pc1A480x360&pid=Local,https://www.bing.com/maps?cp=47.80425262451172%7E13.03991413116455&lvl=17.0&q=Evangelische%20Christuskirche%20%2C%20Schwarzstrasse%2025%20%C2%B7%205020%20Salzburg,47.80425262451172,13.03991413116455,https://christuskirche.at/,0662 874445,info@salzburg.info,,,,
Modern Art in Salzburg,Mozartplatz 4 · 5020 Salzburg,https://www.bing.com/th?id=OLC.yG1o/WKjYUXaGA480x360&pid=Local,https://www.bing.com/maps?cp=47.79936981201172%7E13.047730445861816&lvl=17.0&q=Modern%20Art%20in%20Salzburg%20%2C%20Mozartplatz%204%20%C2%B7%205020%20Salzburg,47.79936981201172,13.047730445861816,http://salzburgfoundation.at/,,office@salzburgfoundation.at,,,,
Galerie Gerlich,Lilli-lehmann-gasse 9 · 5020 Salzburg,,https://www.bing.com/maps?cp=47.79769515991211%7E13.064179420471191&lvl=17.0&q=Galerie%20Gerlich%20%2C%20Lilli-lehmann-gasse%209%20%C2%B7%205020%20Salzburg,47.79769515991211,13.064179420471191,http://www.galerie-gerlich.at/,0662 621070,galerie-gerlich@aon.at,,,,
Altstadt Anlegestelle,Old Town · 0638 Salzburg,,https://www.bing.com/maps?cp=47.82286834716797%7E12.995287895202637&lvl=17.0&q=Altstadt%20Anlegestelle%20%2C%20Old%20Town%20%C2%B7%200638%20Salzburg,47.82286834716797,12.995287895202637,,,,,,,
Parkanlage Glanspitz,Mirabellplatz 4 · 5020 Salzburg,https://www.bing.com/th?id=OLC.UXdAJ27P46cx7g480x360&pid=Local,https://www.bing.com/maps?cp=47.8134651184082%7E13.02518367767334&lvl=17.0&q=Parkanlage%20Glanspitz%20%2C%20Mirabellplatz%204%20%C2%B7%205020%20Salzburg,47.8134651184082,13.02518367767334,,,info@salzburg.info,,,,
Salzburg Milli Görüş,Vogelweiderstraße 65 · 5020 Salzburg,,https://www.bing.com/maps?cp=47.815269470214844%7E13.05367660522461&lvl=17.0&q=Salzburg%20Milli%20G%C3%B6r%C3%BC%C5%9F%20%2C%20Vogelweiderstra%C3%9Fe%2065%20%C2%B7%205020%20Salzburg,47.815269470214844,13.05367660522461,,,,,,,
Freilassing Locomotive World - Munich,Westend Street 5 · 83395 Freilassing,https://www.bing.com/th?id=OLC.adT6Q56i+C1jdQ480x360&pid=Local,https://www.bing.com/maps?cp=47.83785629272461%7E12.966178894042969&lvl=17.0&q=Freilassing%20Locomotive%20World%20-%20Munich%20%2C%20Westend%20Street%205%20%C2%B7%2083395%20Freilassing,47.83785629272461,12.966178894042969,https://lokwelt.freilassing.de/lokwelt/besucherinfo/oeffnungszeiten/,08654 3099320,lokwelt@freilassing.de,,,,
Monatsschlössl,Fürstenweg 37 · 5020 Salzburg,https://www.bing.com/th?id=OLC.2PQ1w4+eCdk2jQ480x360&pid=Local,https://www.bing.com/maps?cp=47.75971984863281%7E13.06443977355957&lvl=17.0&q=Monatsschl%C3%B6ssl%20%2C%20F%C3%BCrstenweg%2037%20%C2%B7%205020%20Salzburg,47.75971984863281,13.06443977355957,https://www.salzburgmuseum.at/volkskundemuseum/,0650 3525457,office@salzburgmuseum.at,"{""facebook"":""https://www.facebook.com/salzburg.museum"",""youtube"":""https://www.youtube.com/channel/ucgraq9jpozen5w1ran3t1xq"",""instagram"":""https://www.instagram.com/salzburg_museum"",""twitter"":""https://www.twitter.com/salzburgmuseum""}",https://www.facebook.com/salzburg.museum,https://www.instagram.com/salzburg_museum,https://www.twitter.com/salzburgmuseum
Dr. Berer,Getreidegasse 5 · 5020 Salzburg,,https://www.bing.com/maps?cp=47.80007553100586%7E13.043869972229004&lvl=17.0&q=Dr.%20Berer%20%2C%20Getreidegasse%205%20%C2%B7%205020%20Salzburg,47.80007553100586,13.043869972229004,https://www.salzburg-ticketshop.at/,0662 84776716,,,,,
Stadtmuseum Freilassing,Lindenstr. 5a · 83395 Freilassing,https://www.bing.com/th?id=OLC.bM5DhxOvDFQBHg480x360&pid=Local,https://www.bing.com/maps?cp=47.840118408203125%7E12.980810165405273&lvl=17.0&q=Stadtmuseum%20Freilassing%20%2C%20Lindenstr.%205a%20%C2%B7%2083395%20Freilassing,47.840118408203125,12.980810165405273,https://stadtmuseum-freilassing.de/archiv/,08654 4806303,info@stadtmuseum-freilassing.de,,,,
Julia Hattinger,Clemens-Krauss-Straße 24/21 · 5020 SALZBURG,,https://www.bing.com/maps?cp=47.80008316040039%7E13.075745582580566&lvl=17.0&q=Julia%20Hattinger%20%2C%20Clemens-Krauss-Stra%C3%9Fe%2024%2F21%20%C2%B7%205020%20SALZBURG,47.80008316040039,13.075745582580566,,0650 6903862,,,,,
Wallfahrtskirche Maria Plain,Plainbergweg 38 · 5101 Bergheim,https://www.bing.com/th?id=OLC.MJmQCL76JQ+fXw480x360&pid=Local,https://www.bing.com/maps?cp=47.838809967041016%7E13.039600372314453&lvl=17.0&q=Wallfahrtskirche%20Maria%20Plain%20%2C%20Plainbergweg%2038%20%C2%B7%205101%20Bergheim,47.838809967041016,13.039600372314453,https://www.mariaplain.at/,0662 4501940,"mariaplain@erzabtei.at,hansjosef_knaust@yahoo.de,datenschutz@erzabtei.at,mariaplain@bergheim.at,mariaplain@paxnatura.at",,,,
Zoo Salzburg Gemeinnützige GmbH,Hellbrunner Straße 60 · 5081 Anif,https://www.bing.com/th?id=OLC.xkHgSyTW9WFSSA480x360&pid=Local,https://www.bing.com/maps?cp=47.756752014160156%7E13.063451766967773&lvl=17.0&q=Zoo%20Salzburg%20Gemeinn%C3%BCtzige%20GmbH%20%2C%20Hellbrunner%20Stra%C3%9Fe%2060%20%C2%B7%205081%20Anif,47.756752014160156,13.063451766967773,https://salzburg-zoo.at/,0662 8201760,"office@salzburg-zoo.at,IhreMail@Adresse.at,erlebnis@salzburg-zoo.at","{""facebook"":""https://www.facebook.com/zoosalzburg/"",""instagram"":""https://www.instagram.com/zoosalzburg"",""youtube"":""https://www.youtube.com/channel/uckhpafgzmhcolv07lcnhfhg""}",https://www.facebook.com/zoosalzburg/,https://www.instagram.com/zoosalzburg,
Alois-stockinger-park (spielplatz),Alois-stockinger-str. · 5020 Salzburg,,https://www.bing.com/maps?cp=47.8123664855957%7E13.032382011413574&lvl=17.0&q=Alois-stockinger-park%20(spielplatz)%20%2C%20Alois-stockinger-str.%20%C2%B7%205020%20Salzburg,47.8123664855957,13.032382011413574,,0660 7807860,salzburg@kronenzeitung.at,,,,
Radiomuseum Grödig,Hauptstrasse 3 · 5082 Grödig,https://www.bing.com/th?id=OLC.R32DhluFr5XRRA480x360&pid=Local,https://www.bing.com/maps?cp=47.740455627441406%7E13.035815238952637&lvl=17.0&q=Radiomuseum%20Gr%C3%B6dig%20%2C%20Hauptstrasse%203%20%C2%B7%205082%20Gr%C3%B6dig,47.740455627441406,13.035815238952637,http://www.radiomuseum-groedig.at/,06246 72857,"Walchhofer@aon.at,walchhofer@aon.at",,,,
Untersbergmuseum Grödig-Fürstenbrunn,Kugelmuehlweg 4 · 5082 Grödig,https://www.bing.com/th?id=OLC.buVzM574GZKipg480x360&pid=Local,https://www.bing.com/maps?cp=47.74250411987305%7E12.992691040039062&lvl=17.0&q=Untersbergmuseum%20Gr%C3%B6dig-F%C3%BCrstenbrunn%20%2C%20Kugelmuehlweg%204%20%C2%B7%205082%20Gr%C3%B6dig,47.74250411987305,12.992691040039062,http://untersbergmuseum.net/,06246 76411,,,,,
Tatjana Meyer,Burgfriedgasse 5 · 5020 SALZBURG,,https://www.bing.com/maps?cp=47.805850982666016%7E13.019668579101562&lvl=17.0&q=Tatjana%20Meyer%20%2C%20Burgfriedgasse%205%20%C2%B7%205020%20SALZBURG,47.805850982666016,13.019668579101562,,,,,,,
Leonhard Fellner,Sterneckstraße 13 · 5020 Salzburg,,https://www.bing.com/maps?cp=47.808658599853516%7E13.052282333374023&lvl=17.0&q=Leonhard%20Fellner%20%2C%20Sterneckstra%C3%9Fe%2013%20%C2%B7%205020%20Salzburg,47.808658599853516,13.052282333374023,,0662 4303510,,,,,
Salzburger Freilichtmuseum,Hasenweg 1 · 5084 Grossgmain,https://www.bing.com/th?id=OLC.zVwoA21Gir4Bxw480x360&pid=Local,https://www.bing.com/maps?cp=47.75155258178711%7E12.945717811584473&lvl=17.0&q=Salzburger%20Freilichtmuseum%20%2C%20Hasenweg%201%20%C2%B7%205084%20Grossgmain,47.75155258178711,12.945717811584473,https://www.freilichtmuseum.com/de/besucherinfo.html,0662 850011,"salzburger@freilichtmuseum.com,info@salzburg.info","{""youtube"":""http://www.youtube.com/user/freilimuseum"",""facebook"":""https://www.facebook.com/salzburgerfreilichtmuseum/"",""instagram"":""https://www.instagram.com/salzburger.freilichtmuseum/""}",https://www.facebook.com/salzburgerfreilichtmuseum/,https://www.instagram.com/salzburger.freilichtmuseum/,
Schloss Emslieb,Hellbrunner Allee 65 · 5020 Salzburg,https://www.bing.com/th?id=OLC.oZH7hk06Q3f7+g480x360&pid=Local,https://www.bing.com/maps?cp=47.765010833740234%7E13.064749717712402&lvl=17.0&q=Schloss%20Emslieb%20%2C%20Hellbrunner%20Allee%2065%20%C2%B7%205020%20Salzburg,47.765010833740234,13.064749717712402,,,,,,,
Touristinformation Marktschellenberg,Messerergasse 8 · 83487 Marktschellenberg,https://www.bing.com/th?id=OLC.3N+lLihYe2lrNQ480x360&pid=Local,https://www.bing.com/maps?cp=47.69435119628906%7E13.047320365905762&lvl=17.0&q=Touristinformation%20Marktschellenberg%20%2C%20Messerergasse%208%20%C2%B7%2083487%20Marktschellenberg,47.69435119628906,13.047320365905762,https://www.marktschellenberg.de/startseite,08650 988830,"touristinfo@marktschellenberg.de,wittmann@bglw.de,marquartstein@bergwacht-bayern.de",,,,
Spielplatz Hüttenbergstraße,Hüttenbergstraße · 5020 Salzburg,,https://www.bing.com/maps?cp=47.81172561645508%7E13.0281982421875&lvl=17.0&q=Spielplatz%20H%C3%BCttenbergstra%C3%9Fe%20%2C%20H%C3%BCttenbergstra%C3%9Fe%20%C2%B7%205020%20Salzburg,47.81172561645508,13.0281982421875,,0662 439487,,,,,
Tourist-Info Bayerisch Gmain,Großgmainer Str. 14 · 83457 Bayerisch Gmain,https://www.bing.com/th?id=OLC.tp1Hjxyu104gIg480x360&pid=Local,https://www.bing.com/maps?cp=47.72182846069336%7E12.898978233337402&lvl=17.0&q=Tourist-Info%20Bayerisch%20Gmain%20%2C%20Gro%C3%9Fgmainer%20Str.%2014%20%C2%B7%2083457%20Bayerisch%20Gmain,47.72182846069336,12.898978233337402,https://www.bad-reichenhall.de/home,08651 7151150,info@bad-reichenhall.de,"{""facebook"":""https://www.facebook.com/alpenstadtbadreichenhall"",""instagram"":""https://www.instagram.com/alpenstadt_reichenhall/?hl=de"",""youtube"":""https://www.youtube.com/c/badreichenhalldereichenhall""}",https://www.facebook.com/alpenstadtbadreichenhall,https://www.instagram.com/alpenstadt_reichenhall/?hl=de,
SWGM - Saab Draken - Denkmal,"Schwarzenbergkaserne - Gebäude 21 S, 5071 Wals, Austria · 5071 Wals-siezenheim",https://www.bing.com/th?id=OLC.QOAOnbtcZYTrkw480x360&pid=Local,https://www.bing.com/maps?cp=47.79098129272461%7E12.977337837219238&lvl=17.0&q=SWGM%20-%20Saab%20Draken%20-%20Denkmal%20%2C%20Schwarzenbergkaserne%20-%20Geb%C3%A4ude%2021%20S%2C%205071%20Wals%2C%20Austria%20%C2%B7%205071%20Wals-siezenheim,47.79098129272461,12.977337837219238,http://www.wehrgeschichte-salzburg.at/,050 2018 020460,,,,,
Gutshof Glanegg,Schloß Glanegg 2 · 5082 Grödig,,https://www.bing.com/maps?cp=47.74879455566406%7E13.007902145385742&lvl=17.0&q=Gutshof%20Glanegg%20%2C%20Schlo%C3%9F%20Glanegg%202%20%C2%B7%205082%20Gr%C3%B6dig,47.74879455566406,13.007902145385742,https://www.mayrmelnhof.at/,06246 7331150,office@mayrmelnhof.at,"{""twitter"":""https://twitter.com/lohningerwunder""}",,,https://twitter.com/lohningerwunder
Schloss Neuhaus,Kuhbergstraße 1 · 5023 Salzburg,,https://www.bing.com/maps?cp=47.80918884277344%7E13.073578834533691&lvl=17.0&q=Schloss%20Neuhaus%20%2C%20Kuhbergstra%C3%9Fe%201%20%C2%B7%205023%20Salzburg,47.80918884277344,13.073578834533691,,0662 643616,,,,,
Замок Ґланеґґ,Schloß Glanegg 1 · 5082 Grödig,https://www.bing.com/th?id=OLC.sb47xcjS82G80w480x360&pid=Local,https://www.bing.com/maps?cp=47.748287200927734%7E13.007650375366211&lvl=17.0&q=%D0%97%D0%B0%D0%BC%D0%BE%D0%BA%20%D2%90%D0%BB%D0%B0%D0%BD%D0%B5%D2%91%D2%91%20%2C%20Schlo%C3%9F%20Glanegg%201%20%C2%B7%205082%20Gr%C3%B6dig,47.748287200927734,13.007650375366211,http://www.bauernadvent-glanegg.at/,0662 825608,,,,,
PetrasGarten,Schwöllern 10 · 5301 Eugendorf,https://www.bing.com/th?id=OLC.uXsdPU134iSoRQ480x360&pid=Local,https://www.bing.com/maps?cp=47.841766357421875%7E13.15352725982666&lvl=17.0&q=PetrasGarten%20%2C%20Schw%C3%B6llern%2010%20%C2%B7%205301%20Eugendorf,47.841766357421875,13.15352725982666,https://www.petrasgarten.at/about/,0670 2020367,office@petrasgarten.at,,,,
Museum Torfwerk Ainring,Mühlreit 5 · 83404 Ainring,,https://www.bing.com/maps?cp=47.834659576416016%7E12.928918838500977&lvl=17.0&q=Museum%20Torfwerk%20Ainring%20%2C%20M%C3%BChlreit%205%20%C2%B7%2083404%20Ainring,47.834659576416016,12.928918838500977,https://ainringer-moos.de/,08656 989999,,,,,
Bismarckbrunnen (bad Reichenhall),Nähe Bahnhofstraße Bad Reichenhall,https://www.bing.com/th?id=OLC.Xxv0gzaHUmc4Vg480x360&pid=Local,https://www.bing.com/maps?cp=47.729618072509766%7E12.881745338439941&lvl=17.0&q=Bismarckbrunnen%20(bad%20Reichenhall)%20%2C%20N%C3%A4he%20Bahnhofstra%C3%9Fe%20Bad%20Reichenhall,47.729618072509766,12.881745338439941,https://www.stadt-bad-reichenhall.de/pressearchiv/pressearchiv-2021/bismarckbrunnen-sprudelt-wieder,08651 7750,,,,,
Robert Kastenhuber,Christian-Laserer-Straße 4 · 5023 SALZBURG,,https://www.bing.com/maps?cp=47.81401443481445%7E13.067181587219238&lvl=17.0&q=Robert%20Kastenhuber%20%2C%20Christian-Laserer-Stra%C3%9Fe%204%20%C2%B7%205023%20SALZBURG,47.81401443481445,13.067181587219238,,,,,,,
Johannishögl,Johannishogl 4 · 83451 Piding,https://www.bing.com/th?id=OLC.mLQtzKm7hTtyjA480x360&pid=Local,https://www.bing.com/maps?cp=47.79222106933594%7E12.923330307006836&lvl=17.0&q=Johannish%C3%B6gl%20%2C%20Johannishogl%204%20%C2%B7%2083451%20Piding,47.79222106933594,12.923330307006836,,,,,,,
Monika Maria Bruckmoser,Habeggutstraße 14 · 5061 ELSBETHEN,,https://www.bing.com/maps?cp=47.7784538269043%7E13.089340209960938&lvl=17.0&q=Monika%20Maria%20Bruckmoser%20%2C%20Habeggutstra%C3%9Fe%2014%20%C2%B7%205061%20ELSBETHEN,47.7784538269043,13.089340209960938,http://www.salzburgstories.at/,0650 6250135,office@salzburgstories.at,,,,
Untersberg,St. Leonhard · 5323 Salzburg,https://www.bing.com/th?id=OLC.RDNPJ2VHz5qxvw480x360&pid=Local,https://www.bing.com/maps?cp=47.79071044921875%7E13.172609329223633&lvl=17.0&q=Untersberg%20%2C%20St.%20Leonhard%20%C2%B7%205323%20Salzburg,47.79071044921875,13.172609329223633,https://www.salzburg.info/en/sights/excursions/cable-car-untersberg,06246 724770,"tourist@salzburg.info,presse@salzburg.info,marketing@salzburg.info,digital-media@salzburg.info,privacy@salzburg.info,info@salzburg.info,cards@salzburg.info,1010，Hohenstaufengasse3号，dsb@dsb.gv.at,dsb@dsb.gv.at","{""facebook"":""https://www.facebook.com/about/privacy"",""youtube"":""https://www.youtube.com/user/salzburginfo"",""instagram"":""https://instagram.com/about/legal/privacy/"",""twitter"":""https://support.twitter.com/articles/20171528"",""pinterest"":""https://about.pinterest.com/de/privacy-policy""}",https://www.facebook.com/about/privacy,https://instagram.com/about/legal/privacy/,https://support.twitter.com/articles/20171528
Manro Classic Auto & Musik Museum,Gewerbepark Habach 1 · 5321 Koppl,https://www.bing.com/th?id=OLC.7hwSTwWR7Ds8qg480x360&pid=Local,https://www.bing.com/maps?cp=47.81732940673828%7E13.160479545593262&lvl=17.0&q=Manro%20Classic%20Auto%20%26%20Musik%20Museum%20%2C%20Gewerbepark%20Habach%201%20%C2%B7%205321%20Koppl,47.81732940673828,13.160479545593262,https://www.manro-classic.at/cms/,0664 3572525,,,,,
Ainringer Moor,Eschlberg 1 83404 · 83404 Ainring,,https://www.bing.com/maps?cp=47.823246002197266%7E12.946850776672363&lvl=17.0&q=Ainringer%20Moor%20%2C%20Eschlberg%201%2083404%20%C2%B7%2083404%20Ainring,47.823246002197266,12.946850776672363,,,,,,,
Pfarramt St. Jakob,Sankt Jakob 11 Elsbethen,https://www.bing.com/th?id=OLC.fIkgMEGCLehJKg480x360&pid=Local,https://www.bing.com/maps?cp=47.74039840698242%7E13.095118522644043&lvl=17.0&q=Pfarramt%20St.%20Jakob%20%2C%20Sankt%20Jakob%2011%20Elsbethen,47.74039840698242,13.095118522644043,http://gde-elsbethen.at/Pfarramt_St_Jakob_2,0662 629289,"post@gde-elsbethen.at,pfarre.stjakobthurn@pfarre.kirchen.net,michaela.brunnauer@gde-elsbethen.at,buergermeister@gde-elsbethen.at,kindergarten.elsbethen@gde-elsbethen.at",,,,
Tourist Information Anger,Dorfplatz 4 · 83454 Anger,https://www.bing.com/th?id=OLC.NRCxTlCT5Ky8rg480x360&pid=Local,https://www.bing.com/maps?cp=47.802764892578125%7E12.857137680053711&lvl=17.0&q=Tourist%20Information%20Anger%20%2C%20Dorfplatz%204%20%C2%B7%2083454%20Anger,47.802764892578125,12.857137680053711,https://www.anger.de/startseite,08656 98890,info@anger.de,,,,
Museum of the Celts Hallein,Pflegerplatz 5 · 5400 Hallein,https://www.bing.com/th?id=OLC.bjDsuxwiMZa20w480x360&pid=Local,https://www.bing.com/maps?cp=47.683563232421875%7E13.093262672424316&lvl=17.0&q=Museum%20of%20the%20Celts%20Hallein%20%2C%20Pflegerplatz%205%20%C2%B7%205400%20Hallein,47.683563232421875,13.093262672424316,https://www.keltenmuseum.at/spezialseiten/headernavigation/kontakt/,06245 80783,"keltenmuseum@keltenmuseum.at,knopp@keltenmuseum.at,koch-waldner@keltenmuseum.at,wuensche@keltenmuseum.at,pelwecki@keltenmuseum.at,huber@keltenmuseum.at,holzner@keltenmuseum.at,schlager@keltenmuseum.at,tober@keltenmuseum.at,winkler@keltenmuseum.at,besucherservice@keltenmuseum.at,stillenachtmuseum@hallein.gv.at","{""instagram"":""https://www.instagram.com/keltenmuseum.hallein/"",""facebook"":""https://www.facebook.com/keltenmuseum/""}",https://www.facebook.com/keltenmuseum/,https://www.instagram.com/keltenmuseum.hallein/,
Schloss Gartenau,Gutrathbergweg 5 · 5083 Hallein,,https://www.bing.com/maps?cp=47.72198486328125%7E13.046761512756348&lvl=17.0&q=Schloss%20Gartenau%20%2C%20Gutrathbergweg%205%20%C2%B7%205083%20Hallein,47.72198486328125,13.046761512756348,,,,,,,
Das Salzburger Puppenwelt Museum,Zollstraße 4 Walserberg,https://www.bing.com/th?id=OLC.aPxkeLmrY22djQ480x360&pid=Local,https://www.bing.com/maps?cp=47.76740264892578%7E12.9461088180542&lvl=17.0&q=Das%20Salzburger%20Puppenwelt%20Museum%20%2C%20Zollstra%C3%9Fe%204%20Walserberg,47.76740264892578,12.9461088180542,https://salzburger-puppenwelt.at/,0662 850044,info@salzburger-puppenwelt.at,"{""facebook"":""https://www.facebook.com/servuswalserberg""}",https://www.facebook.com/servuswalserberg,,
Stille Nacht Museum,Gruberplatz 1 · 5400 Hallein,https://www.bing.com/th?id=OLC.7nR8DqDD6kESjw480x360&pid=Local,https://www.bing.com/maps?cp=47.680755615234375%7E13.091713905334473&lvl=17.0&q=Stille%20Nacht%20Museum%20%2C%20Gruberplatz%201%20%C2%B7%205400%20Hallein,47.680755615234375,13.091713905334473,https://www.keltenmuseum.at/stillenachtmuseum/,06245 80783,"stillenachtmuseum@hallein.gv.at,knopp@keltenmuseum.at,keltenmuseum@keltenmuseum.at,besucherservice@keltenmuseum.at","{""instagram"":""https://www.instagram.com/keltenmuseum.hallein/"",""facebook"":""https://www.facebook.com/stillenachtmuseumhallein/""}",https://www.facebook.com/stillenachtmuseumhallein/,https://www.instagram.com/keltenmuseum.hallein/,
SpielArt,Adolf Schemelstrasse 11 · 5020 Salzburg,https://www.bing.com/th?id=OLC.U/J7BiAcOUyr4Q480x360&pid=Local,https://www.bing.com/maps?cp=47.773990631103516%7E13.071760177612305&lvl=17.0&q=SpielArt%20%2C%20Adolf%20Schemelstrasse%2011%20%C2%B7%205020%20Salzburg,47.773990631103516,13.071760177612305,https://spielart.multimediaart.at/,07682 216218,,,,,
Tourist-Info Bad Reichenhall,Wittelsbacherstr. 15 · 83435 Bad Reichenhall,https://www.bing.com/th?id=OLC.tp1Hjxyu104gIg480x360&pid=Local,https://www.bing.com/maps?cp=47.728729248046875%7E12.87869644165039&lvl=17.0&q=Tourist-Info%20Bad%20Reichenhall%20%2C%20Wittelsbacherstr.%2015%20%C2%B7%2083435%20Bad%20Reichenhall,47.728729248046875,12.87869644165039,https://www.bad-reichenhall.de/tourist-informationen,08651 715110,"info@bad-reichenhall.de,luethje@cima.de","{""facebook"":""https://www.bing.com/images/search?view=detailv2&mediaurl=https%3a%2f%2fwww.bad-reichenhall.de%2fcdn%2fuploads%2frelax-in-alpine-brine-thseoimagefacebook.jpg&expw=1200&exph=744&cbid=olc.arhanrymqaqbgg480x360&cbn=local&idpp=local&thid=olc.arhanrymqaqbgg480x360&ypid=yn6740x14326332579631368244&usebfpr=0&eeptype=photogroups&datagroup=local:datagroup.photos&photogroupname=allphotos&pagetag=allphotos&selectedindex=1&id=olc.arhanrymqaqbgg480x360&q=tourist-info bad reichenhall wittelsbacherstr. 15 · 83435 bad reichenhall&pseg=homeandprofessionalservices&noidpclose=0&form=locimg"",""instagram"":""https://www.instagram.com/alpenstadt_reichenhall/"",""youtube"":""https://www.youtube.com/c/badreichenhalldereichenhall""}",https://www.bing.com/images/search?view=detailv2&mediaurl=https%3a%2f%2fwww.bad-reichenhall.de%2fcdn%2fuploads%2frelax-in-alpine-brine-thseoimagefacebook.jpg&expw=1200&exph=744&cbid=olc.arhanrymqaqbgg480x360&cbn=local&idpp=local&thid=olc.arhanrymqaqbgg480x360&ypid=yn6740x14326332579631368244&usebfpr=0&eeptype=photogroups&datagroup=local:datagroup.photos&photogroupname=allphotos&pagetag=allphotos&selectedindex=1&id=olc.arhanrymqaqbgg480x360&q=tourist-info bad reichenhall wittelsbacherstr. 15 · 83435 bad reichenhall&pseg=homeandprofessionalservices&noidpclose=0&form=locimg,https://www.instagram.com/alpenstadt_reichenhall/,
Ainring Alpakas,Breitwiese 26 · 83404 Ainring,https://www.bing.com/th?id=OLC.VrngI5edf17nnw480x360&pid=Local,https://www.bing.com/maps?cp=47.809410095214844%7E12.94056224822998&lvl=17.0&q=Ainring%20Alpakas%20%2C%20Breitwiese%2026%20%C2%B7%2083404%20Ainring,47.809410095214844,12.94056224822998,https://ainring-alpakas.de/,0173 8065413,info@ainring-alpakas.de,,,,
Koniglicher Kurgarten Bad Reichenhall,Kurstrasse · 83435 Bad Reichenhall,https://www.bing.com/th?id=OLC.BgPUgmmH7QVcmg480x360&pid=Local,https://www.bing.com/maps?cp=47.72762680053711%7E12.880789756774902&lvl=17.0&q=Koniglicher%20Kurgarten%20Bad%20Reichenhall%20%2C%20Kurstrasse%20%C2%B7%2083435%20Bad%20Reichenhall,47.72762680053711,12.880789756774902,https://www.bad-reichenhall.de/koeniglicher-kurgarten,08651 6060,info@bad-reichenhall.de,"{""facebook"":""https://www.facebook.com/alpenstadtbadreichenhall"",""instagram"":""https://www.instagram.com/alpenstadt_reichenhall/?hl=de"",""youtube"":""https://www.youtube.com/c/badreichenhalldereichenhall""}",https://www.facebook.com/alpenstadtbadreichenhall,https://www.instagram.com/alpenstadt_reichenhall/?hl=de,
Salt Museum Bad Reichenhall,Old Saline 9 · 83435 Bad Reichenhall,https://www.bing.com/th?id=OLC.6T6yQsR0f7IRtA480x360&pid=Local,https://www.bing.com/maps?cp=47.72100067138672%7E12.87736988067627&lvl=17.0&q=Salt%20Museum%20Bad%20Reichenhall%20%2C%20Old%20Saline%209%20%C2%B7%2083435%20Bad%20Reichenhall,47.72100067138672,12.87736988067627,https://www.alte-saline.de/,08651 70026146,info@alte-saline.de,"{""facebook"":""https://www.facebook.com/alte.saline.bad.reichenhall"",""instagram"":""https://www.instagram.com/altesaline_badreichenhall/""}",https://www.facebook.com/alte.saline.bad.reichenhall,https://www.instagram.com/altesaline_badreichenhall/,
Kletterpark Waldbad Anif,Waldbadstrasse · 5081 Anif,https://www.bing.com/th?id=OLC.WA/KVJ0BT2areg480x360&pid=Local,https://www.bing.com/maps?cp=47.733001708984375%7E13.080944061279297&lvl=17.0&q=Kletterpark%20Waldbad%20Anif%20%2C%20Waldbadstrasse%20%C2%B7%205081%20Anif,47.733001708984375,13.080944061279297,https://www.kletterpark-salzburg.at/,0664 4309380,office@kletterpark-salzburg.at,"{""facebook"":""http://www.facebook.com/pages/kletterpark-waldbad-anif/123661844356780"",""youtube"":""http://www.youtube.com/user/kletterparksalzburg""}",http://www.facebook.com/pages/kletterpark-waldbad-anif/123661844356780,,
Plotz,An der Plötz · 5323 Ebenau,https://www.bing.com/th?id=OLC.YC3IkHHeFUJg7Q480x360&pid=Local,https://www.bing.com/maps?cp=47.79840850830078%7E13.185334205627441&lvl=17.0&q=Plotz%20%2C%20An%20der%20Pl%C3%B6tz%20%C2%B7%205323%20Ebenau,47.79840850830078,13.185334205627441,,,,,,,
Tourist-Information Ramsau,Im Tal 2 · 83486 Ramsau,https://www.bing.com/th?id=OLC.qmIQKHeDlORz/g480x360&pid=Local,https://www.bing.com/maps?cp=47.60605239868164%7E12.909028053283691&lvl=17.0&q=Tourist-Information%20Ramsau%20%2C%20Im%20Tal%202%20%C2%B7%2083486%20Ramsau,47.60605239868164,12.909028053283691,https://www.ramsau.de/,08657 988920,info@ramsau.de,"{""facebook"":""https://www.facebook.com/ramsau.bgl/"",""instagram"":""https://www.instagram.com/ramsau.de/""}",https://www.facebook.com/ramsau.bgl/,https://www.instagram.com/ramsau.de/,
Gletscherschliff,Adnet 119 · 5421 Adnet,,https://www.bing.com/maps?cp=47.695960998535156%7E13.134885787963867&lvl=17.0&q=Gletscherschliff%20%2C%20Adnet%20119%20%C2%B7%205421%20Adnet,47.695960998535156,13.134885787963867,,,tourismus@adnet.info,"{""facebook"":""https://www.facebook.com/gemeindeadnet/""}",https://www.facebook.com/gemeindeadnet/,,
Keltendorf,Ramsaustrasse 3 · 5422 Bad Durrnberg,https://www.bing.com/th?id=OLC.hYlZ3Nei72zBbA480x360&pid=Local,https://www.bing.com/maps?cp=47.667518615722656%7E13.089929580688477&lvl=17.0&q=Keltendorf%20%2C%20Ramsaustrasse%203%20%C2%B7%205422%20Bad%20Durrnberg,47.667518615722656,13.089929580688477,http://www.keltenmuseum.at/,06232 2008511,"besucherservice@keltenmuseum.at,keltenmuseum@keltenmuseum.at","{""instagram"":""https://www.instagram.com/keltenmuseum.hallein/"",""facebook"":""https://www.facebook.com/keltenmuseum/""}",https://www.facebook.com/keltenmuseum/,https://www.instagram.com/keltenmuseum.hallein/,
Berchtesgadener Hochthron,83471 Schellenberger Forst,https://www.bing.com/th?id=OLC.X+Ewg0CMJcspwA480x360&pid=Local,https://www.bing.com/maps?cp=47.694026947021484%7E12.986109733581543&lvl=17.0&q=Berchtesgadener%20Hochthron%20%2C%2083471%20Schellenberger%20Forst,47.694026947021484,12.986109733581543,https://www.bergwelten.com/t/w/9445,,privacy@redbull.com,"{""facebook"":""http://www.facebook.com/privacy/policies/cookies/"",""instagram"":""http://privacycenter.instagram.com/policy/?entry_point=ig_help_center_data_policy_redirect"",""twitter"":""https://gdpr.twitter.com/en/controller-to-controller-transfers.html"",""youtube"":""https://www.youtube.com/channel/uctuswmcsbmokrfpn5q5pfua"",""spotify"":""http://www.spotify.com/at/legal/privacy-policy/""}",http://www.facebook.com/privacy/policies/cookies/,http://privacycenter.instagram.com/policy/?entry_point=ig_help_center_data_policy_redirect,https://gdpr.twitter.com/en/controller-to-controller-transfers.html
Tourismusverband Hallein,Mauttorpromenade 6 · 5400 Hallein,https://www.bing.com/th?id=OLC.PC+OILI5d9HO4Q480x360&pid=Local,https://www.bing.com/maps?cp=47.685096740722656%7E13.093448638916016&lvl=17.0&q=Tourismusverband%20Hallein%20%2C%20Mauttorpromenade%206%20%C2%B7%205400%20Hallein,47.685096740722656,13.093448638916016,http://www.hallein.com/,06245 85394,office@hallein.com,"{""facebook"":""https://www.facebook.com/halleinbadduerrnberg"",""youtube"":""https://www.youtube.com/channel/uc7mwrkyl-js1rsp07ndsoug"",""instagram"":""https://www.instagram.com/visithallein/""}",https://www.facebook.com/halleinbadduerrnberg,https://www.instagram.com/visithallein/,
Almbachklamm,Kugelmühlweg 18 · 83487 Marktschellenberg,https://www.bing.com/th?id=OLC.OgbMTWqzk/wqBQ480x360&pid=Local,https://www.bing.com/maps?cp=47.670719146728516%7E13.031000137329102&lvl=17.0&q=Almbachklamm%20%2C%20Kugelm%C3%BChlweg%2018%20%C2%B7%2083487%20Marktschellenberg,47.670719146728516,13.031000137329102,https://www.almbachklamm.com/adresse-anfahrt-bus/,08650 988830,*** Waiting for processing ***,*** Waiting for processing ***,*** Waiting for processing ***,*** Waiting for processing ***,*** Waiting for processing ***
Hochstaufen,83435 Bad Reichenhall,https://www.bing.com/th?id=OLC.vRePqID3DEiXcA480x360&pid=Local,https://www.bing.com/maps?cp=47.75%7E12.850000381469727&lvl=17.0&q=Hochstaufen%20%2C%2083435%20Bad%20Reichenhall,47.75,12.850000381469727,https://www.dav-badreichenhall.de/,,*** Waiting for processing ***,*** Waiting for processing ***,*** Waiting for processing ***,*** Waiting for processing ***,*** Waiting for processing ***
Wildkar Waterfall,Roehrmoosmuehle 1 · 5164 Seeham,https://www.bing.com/th?id=OLC.3HdS1RCi66N1Sw480x360&pid=Local,https://www.bing.com/maps?cp=47.95233917236328%7E13.0593900680542&lvl=17.0&q=Wildkar%20Waterfall%20%2C%20Roehrmoosmuehle%201%20%C2%B7%205164%20Seeham,47.95233917236328,13.0593900680542,http://www.teufelsgraben.at/,,*** Waiting for processing ***,*** Waiting for processing ***,*** Waiting for processing ***,*** Waiting for processing ***,*** Waiting for processing ***
Predigtstuhlbahn,Südtiroler Platz 1 · 83435 Bad Reichenhall,https://www.bing.com/th?id=OLC.e28fORvl+RC2sA480x360&pid=Local,https://www.bing.com/maps?cp=47.71665954589844%7E12.872150421142578&lvl=17.0&q=Predigtstuhlbahn%20%2C%20S%C3%BCdtiroler%20Platz%201%20%C2%B7%2083435%20Bad%20Reichenhall,47.71665954589844,12.872150421142578,https://www.predigtstuhlbahn.de/,08651 96850,*** Waiting for processing ***,*** Waiting for processing ***,*** Waiting for processing ***,*** Waiting for processing ***,*** Waiting for processing ***
Florianibrunnen (bad Reichenhall),Florianiplatz Bad Reichenhall,https://www.bing.com/th?id=OLC.ejY4bMUun+zqTg480x360&pid=Local,https://www.bing.com/maps?cp=47.719295501708984%7E12.876158714294434&lvl=17.0&q=Florianibrunnen%20(bad%20Reichenhall)%20%2C%20Florianiplatz%20Bad%20Reichenhall,47.719295501708984,12.876158714294434,,08651 715110,*** Waiting for processing ***,*** Waiting for processing ***,*** Waiting for processing ***,*** Waiting for processing ***,*** Waiting for processing ***
Wald-Idyll-Pfad (Maisweg),Großgmainer Str. 14 · 83457 Bayerisch Gmain,,https://www.bing.com/maps?cp=47.72196960449219%7E12.898956298828125&lvl=17.0&q=Wald-Idyll-Pfad%20(Maisweg)%20%2C%20Gro%C3%9Fgmainer%20Str.%2014%20%C2%B7%2083457%20Bayerisch%20Gmain,47.72196960449219,12.898956298828125,https://www.bad-reichenhall.de/wandern/wanderwege/wald-idyll-pfad,08651 7151150,*** Waiting for processing ***,*** Waiting for processing ***,*** Waiting for processing ***,*** Waiting for processing ***,*** Waiting for processing ***
Kornsteinplatz,"2,Kornsteinplatz · 5400 Hallein",,https://www.bing.com/maps?cp=47.68257522583008%7E13.093107223510742&lvl=17.0&q=Kornsteinplatz%20%2C%202%2CKornsteinplatz%20%C2%B7%205400%20Hallein,47.68257522583008,13.093107223510742,,,*** Waiting for processing ***,*** Waiting for processing ***,*** Waiting for processing ***,*** Waiting for processing ***,*** Waiting for processing ***
Rupertusplatz,Rupertusplatz 1 · 83410 Laufen,https://www.bing.com/th?id=OLC.beji/O1hyNi6Cw480x360&pid=Local,https://www.bing.com/maps?cp=47.941104888916016%7E12.936899185180664&lvl=17.0&q=Rupertusplatz%20%2C%20Rupertusplatz%201%20%C2%B7%2083410%20Laufen,47.941104888916016,12.936899185180664,https://stadtlaufen.de/,,*** Waiting for processing ***,*** Waiting for processing ***,*** Waiting for processing ***,*** Waiting for processing ***,*** Waiting for processing ***
Sankt Laurentius,Gaisbergstraße 6 Piding,https://www.bing.com/th?id=OLC.DVURoJlWn7L8jg480x360&pid=Local,https://www.bing.com/maps?cp=47.760169982910156%7E12.901795387268066&lvl=17.0&q=Sankt%20Laurentius%20%2C%20Gaisbergstra%C3%9Fe%206%20Piding,47.760169982910156,12.901795387268066,https://www.sn.at/wiki/Kirche_St._Laurentius_Mauthausen_(Piding),,*** Waiting for processing ***,*** Waiting for processing ***,*** Waiting for processing ***,*** Waiting for processing ***,*** Waiting for processing ***
Tourismusverband Thalgau,Marktplatz 4 · 5303 Thalgau,https://www.bing.com/th?id=OLC.jEGl+/iXdNwKZw480x360&pid=Local,https://www.bing.com/maps?cp=47.8419303894043%7E13.25376033782959&lvl=17.0&q=Tourismusverband%20Thalgau%20%2C%20Marktplatz%204%20%C2%B7%205303%20Thalgau,47.8419303894043,13.25376033782959,http://www.thalgau-tourismus.at/,06235 73500,*** Waiting for processing ***,*** Waiting for processing ***,*** Waiting for processing ***,*** Waiting for processing ***,*** Waiting for processing ***
Adlergehege Obersalzberg,Hintereck 9 · 83471 Berchtesgaden,https://www.bing.com/th?id=OLC.Wedpt6/1AnUtYA480x360&pid=Local,https://www.bing.com/maps?cp=47.633304595947266%7E13.048372268676758&lvl=17.0&q=Adlergehege%20Obersalzberg%20%2C%20Hintereck%209%20%C2%B7%2083471%20Berchtesgaden,47.633304595947266,13.048372268676758,https://adlergehege-berchtesgaden.de/,08652 4172,*** Waiting for processing ***,*** Waiting for processing ***,*** Waiting for processing ***,*** Waiting for processing ***,*** Waiting for processing ***
Wallfahrtskirche Ettenberg,Vorderettenberg 7 Marktschellenberg,https://www.bing.com/th?id=OLC.bMKTd7fvh15Ibg480x360&pid=Local,https://www.bing.com/maps?cp=47.67739486694336%7E13.024291038513184&lvl=17.0&q=Wallfahrtskirche%20Ettenberg%20%2C%20Vorderettenberg%207%20Marktschellenberg,47.67739486694336,13.024291038513184,https://stiftsland.de/,08650 221,*** Waiting for processing ***,*** Waiting for processing ***,*** Waiting for processing ***,*** Waiting for processing ***,*** Waiting for processing ***
Steiner Alm Über Aufham,Aufham Anger,https://www.bing.com/th?id=OLC.AnAxSIU5Z8XBpQ480x360&pid=Local,https://www.bing.com/maps?cp=47.78480911254883%7E12.870529174804688&lvl=17.0&q=Steiner%20Alm%20%C3%9Cber%20Aufham%20%2C%20Aufham%20Anger,47.78480911254883,12.870529174804688,https://www.berchtesgaden.de/rupertiwinkel/wandern-im-stoisser-achental/steiner-alm-ueber-aufham,08656 988922,*** Waiting for processing ***,*** Waiting for processing ***,*** Waiting for processing ***,*** Waiting for processing ***,*** Waiting for processing ***
Documentation Obersalzberg,Salzbergstreet 41 · 83471 Berchtesgaden,https://www.bing.com/th?id=OLC.BZLMgyFj/Ssk5Q480x360&pid=Local,https://www.bing.com/maps?cp=47.63167190551758%7E13.04019832611084&lvl=17.0&q=Documentation%20Obersalzberg%20%2C%20Salzbergstreet%2041%20%C2%B7%2083471%20Berchtesgaden,47.63167190551758,13.04019832611084,https://obersalzberg.de/,08652 947960,*** Waiting for processing ***,*** Waiting for processing ***,*** Waiting for processing ***,*** Waiting for processing ***,*** Waiting for processing ***
Frankenburg,Von-Heinleth-Str. 5 · 83435 Bad Reichenhall,,https://www.bing.com/maps?cp=47.72983932495117%7E12.878912925720215&lvl=17.0&q=Frankenburg%20%2C%20Von-Heinleth-Str.%205%20%C2%B7%2083435%20Bad%20Reichenhall,47.72983932495117,12.878912925720215,,08651 3522,*** Waiting for processing ***,*** Waiting for processing ***,*** Waiting for processing ***,*** Waiting for processing ***,*** Waiting for processing ***
Kath. Pfarrkirche St. Nikolaus,Salzburger Str. 24 · 83487 Marktschellenberg,https://www.bing.com/th?id=OLC.zkblojdbABLFig480x360&pid=Local,https://www.bing.com/maps?cp=47.69694519042969%7E13.045685768127441&lvl=17.0&q=Kath.%20Pfarrkirche%20St.%20Nikolaus%20%2C%20Salzburger%20Str.%2024%20%C2%B7%2083487%20Marktschellenberg,47.69694519042969,13.045685768127441,https://stiftsland.de/kontakt.html,08650 221,*** Waiting for processing ***,*** Waiting for processing ***,*** Waiting for processing ***,*** Waiting for processing ***,*** Waiting for processing ***
Abtsdorfer See,83416 Saaldorf-Surheim,https://www.bing.com/th?id=OLC.pwWI/rNftLiRtA480x360&pid=Local,https://www.bing.com/maps?cp=47.910560607910156%7E12.907779693603516&lvl=17.0&q=Abtsdorfer%20See%20%2C%2083416%20Saaldorf-Surheim,47.910560607910156,12.907779693603516,,,*** Waiting for processing ***,*** Waiting for processing ***,*** Waiting for processing ***,*** Waiting for processing ***,*** Waiting for processing ***
Ploetzhof,Wolfgangseestraße 35 · 5322 Hof Bei Salzburg,,https://www.bing.com/maps?cp=47.81488037109375%7E13.235618591308594&lvl=17.0&q=Ploetzhof%20%2C%20Wolfgangseestra%C3%9Fe%2035%20%C2%B7%205322%20Hof%20Bei%20Salzburg,47.81488037109375,13.235618591308594,http://www.ploetzhof.at/,,*** Waiting for processing ***,*** Waiting for processing ***,*** Waiting for processing ***,*** Waiting for processing ***,*** Waiting for processing ***
Wimbachklamm,Wimbachbrucke · 83486 Ramsau,https://www.bing.com/th?id=OLC.+Ul+z+6opLdEHw480x360&pid=Local,https://www.bing.com/maps?cp=47.602439880371094%7E12.923680305480957&lvl=17.0&q=Wimbachklamm%20%2C%20Wimbachbrucke%20%C2%B7%2083486%20Ramsau,47.602439880371094,12.923680305480957,https://www.berchtesgaden.de/wimbachklamm,08657 983955,*** Waiting for processing ***,*** Waiting for processing ***,*** Waiting for processing ***,*** Waiting for processing ***,*** Waiting for processing ***
Nest Historical Tours,Salzbergstr. 43 · 83471 Berchtesgaden,https://www.bing.com/th?id=OLC.taO3LePB16ZdYQ480x360&pid=Local,https://www.bing.com/maps?cp=47.630271911621094%7E13.040902137756348&lvl=17.0&q=Nest%20Historical%20Tours%20%2C%20Salzbergstr.%2043%20%C2%B7%2083471%20Berchtesgaden,47.630271911621094,13.040902137756348,https://www.eagles-nest-tours.com/,08652 62172,*** Waiting for processing ***,*** Waiting for processing ***,*** Waiting for processing ***,*** Waiting for processing ***,*** Waiting for processing ***
IGM Salzburgring,Salzburgring 1 · 5325 Plainfeld,https://www.bing.com/th?id=OLC.p+GsIOmCeE4xFg480x360&pid=Local,https://www.bing.com/maps?cp=47.823028564453125%7E13.167208671569824&lvl=17.0&q=IGM%20Salzburgring%20%2C%20Salzburgring%201%20%C2%B7%205325%20Plainfeld,47.823028564453125,13.167208671569824,https://salzburgring.com/,06221 7301,*** Waiting for processing ***,*** Waiting for processing ***,*** Waiting for processing ***,*** Waiting for processing ***,*** Waiting for processing ***
Inzeller Touristik,Rathausplatz 5 · 83334 Inzell,https://www.bing.com/th?id=OLC.nkKAmAOOopcRSQ480x360&pid=Local,https://www.bing.com/maps?cp=47.76262283325195%7E12.748043060302734&lvl=17.0&q=Inzeller%20Touristik%20%2C%20Rathausplatz%205%20%C2%B7%2083334%20Inzell,47.76262283325195,12.748043060302734,https://www.inzell.de/,08665 98850,*** Waiting for processing ***,*** Waiting for processing ***,*** Waiting for processing ***,*** Waiting for processing ***,*** Waiting for processing ***
Wandelhalle,Salzburger Str. 71/2 Bad Reichenhall,,https://www.bing.com/maps?cp=47.74228286743164%7E12.899298667907715&lvl=17.0&q=Wandelhalle%20%2C%20Salzburger%20Str.%2071%2F2%20Bad%20Reichenhall,47.74228286743164,12.899298667907715,https://badreichenhallwiki.eu/index.php?title=Wandelhalle_Bad_Reichenhall,,*** Waiting for processing ***,*** Waiting for processing ***,*** Waiting for processing ***,*** Waiting for processing ***,*** Waiting for processing ***
WHN Liegenschaften OG,Saalachstraße 28 · 5020 Salzburg,,https://www.bing.com/maps?cp=47.831783294677734%7E12.998847007751465&lvl=17.0&q=WHN%20Liegenschaften%20OG%20%2C%20Saalachstra%C3%9Fe%2028%20%C2%B7%205020%20Salzburg,47.831783294677734,12.998847007751465,,,*** Waiting for processing ***,*** Waiting for processing ***,*** Waiting for processing ***,*** Waiting for processing ***,*** Waiting for processing ***
Falkensee,Rathausplatz 5 Inzell,https://www.bing.com/th?id=OLC.WRK7IEauzGLA1Q480x360&pid=Local,https://www.bing.com/maps?cp=47.76262283325195%7E12.748043060302734&lvl=17.0&q=Falkensee%20%2C%20Rathausplatz%205%20Inzell,47.76262283325195,12.748043060302734,https://www.inzell.de/,,*** Waiting for processing ***,*** Waiting for processing ***,*** Waiting for processing ***,*** Waiting for processing ***,*** Waiting for processing ***
Leprosenhauskapelle,Salzburger Str. 14 · 5400 Hallein,,https://www.bing.com/maps?cp=47.69099807739258%7E13.08201789855957&lvl=17.0&q=Leprosenhauskapelle%20%2C%20Salzburger%20Str.%2014%20%C2%B7%205400%20Hallein,47.69099807739258,13.08201789855957,,0664 4488001,*** Waiting for processing ***,*** Waiting for processing ***,*** Waiting for processing ***,*** Waiting for processing ***,*** Waiting for processing ***
National Park-Info Point Kühroint,Kühroint 2 Head Office: Doktorberg 6 · 83486 Ramsau bei Berchtesgaden,https://www.bing.com/th?id=OLC.uRD88DWFABbJuQ480x360&pid=Local,https://www.bing.com/maps?cp=47.63372802734375%7E13.000711441040039&lvl=17.0&q=National%20Park-Info%20Point%20K%C3%BChroint%20%2C%20K%C3%BChroint%202%20Head%20Office%3A%20Doktorberg%206%20%C2%B7%2083486%20Ramsau%20bei%20Berchtesgaden,47.63372802734375,13.000711441040039,https://www.nationalpark-berchtesgaden.bayern.de/,08652 96860,*** Waiting for processing ***,*** Waiting for processing ***,*** Waiting for processing ***,*** Waiting for processing ***,*** Waiting for processing ***
Frillenseerunde Von Der Fürmann Alm,Fürmann Alm Anger,,https://www.bing.com/maps?cp=47.79429244995117%7E12.837027549743652&lvl=17.0&q=Frillenseerunde%20Von%20Der%20F%C3%BCrmann%20Alm%20%2C%20F%C3%BCrmann%20Alm%20Anger,47.79429244995117,12.837027549743652,,08656 988922,*** Waiting for processing ***,*** Waiting for processing ***,*** Waiting for processing ***,*** Waiting for processing ***,*** Waiting for processing ***
Painters' Circular Trail,Lake Hintersee Ramsau,https://www.bing.com/th?id=OLC.ruXYp526wtEsyA480x360&pid=Local,https://www.bing.com/maps?cp=47.60654830932617%7E12.872980117797852&lvl=17.0&q=Painters'%20Circular%20Trail%20%2C%20Lake%20Hintersee%20Ramsau,47.60654830932617,12.872980117797852,https://ramsau.de/en/summer-activities/hiking/174-wan-maler-rundwanderweg.html,,*** Waiting for processing ***,*** Waiting for processing ***,*** Waiting for processing ***,*** Waiting for processing ***,*** Waiting for processing ***
Mountain Move,"Bahnhofplatz 2, 3. Stockwerk · 83471 Berchtesgaden",https://www.bing.com/th?id=OLC.tZLrE9XDihq9JQ480x360&pid=Local,https://www.bing.com/maps?cp=47.62628173828125%7E12.999309539794922&lvl=17.0&q=Mountain%20Move%20%2C%20Bahnhofplatz%202%2C%203.%20Stockwerk%20%C2%B7%2083471%20Berchtesgaden,47.62628173828125,12.999309539794922,https://mountain-move.de/kontakt/,08652 655836,*** Waiting for processing ***,*** Waiting for processing ***,*** Waiting for processing ***,*** Waiting for processing ***,*** Waiting for processing ***
Der Wolfgangweg,"Au 140, St. Wolfgang, Upper Austria 5360",https://www.bing.com/th?id=OLC.5N0Fbj+wIQ4HoQ480x360&pid=Local,https://www.bing.com/maps?cp=47.75%7E13.399999618530273&lvl=17.0&q=Der%20Wolfgangweg%20%2C%20Au%20140%2C%20St.%20Wolfgang%2C%20Upper%20Austria%205360,47.75,13.399999618530273,https://wolfgangsee.salzkammergut.at/,06138 8003,*** Waiting for processing ***,*** Waiting for processing ***,*** Waiting for processing ***,*** Waiting for processing ***,*** Waiting for processing ***
Mozart Residence (Mozart Wohnhaus),Makartplatz 8 · 5020 Salzburg,https://www.bing.com/th?id=OLC.wsgPsldqit38Vg480x360&pid=Local,https://www.bing.com/maps?cp=47.80268096923828%7E13.043919563293457&lvl=17.0&q=Mozart%20Residence%20(Mozart%20Wohnhaus)%20%2C%20Makartplatz%208%20%C2%B7%205020%20Salzburg,47.80268096923828,13.043919563293457,https://mozarteum.at/en/mozart-museums/mozarts-residence,0662 87422740,*** Waiting for processing ***,*** Waiting for processing ***,*** Waiting for processing ***,*** Waiting for processing ***,*** Waiting for processing ***
Spielzeugmuseum (Toy Museum),Buergerspitalgasse 2 · 5020 Salzburg,https://www.bing.com/th?id=OLC.QwTbTbjKOTTUXg480x360&pid=Local,https://www.bing.com/maps?cp=47.79981994628906%7E13.03993034362793&lvl=17.0&q=Spielzeugmuseum%20(Toy%20Museum)%20%2C%20Buergerspitalgasse%202%20%C2%B7%205020%20Salzburg,47.79981994628906,13.03993034362793,http://www.spielzeugmuseum.at/,0662 620808300,*** Waiting for processing ***,*** Waiting for processing ***,*** Waiting for processing ***,*** Waiting for processing ***,*** Waiting for processing ***
Kollegienkirche (Collegiate Church),3500 Salzburg,https://www.bing.com/th?id=OLC.EofQhp/Vy6dBOA480x360&pid=Local,https://www.bing.com/maps?cp=47.79927444458008%7E13.043238639831543&lvl=17.0&q=Kollegienkirche%20(Collegiate%20Church)%20%2C%203500%20Salzburg,47.79927444458008,13.043238639831543,http://www.kollegienkirche.at/de/,0662 84132772,*** Waiting for processing ***,*** Waiting for processing ***,*** Waiting for processing ***,*** Waiting for processing ***,*** Waiting for processing ***
Residenzplatz,Residenzpl. 4 · 5020 Salzburg,https://www.bing.com/th?id=OLC.u4v18IZNvXnNuA480x360&pid=Local,https://www.bing.com/maps?cp=47.7985954284668%7E13.046480178833008&lvl=17.0&q=Residenzplatz%20%2C%20Residenzpl.%204%20%C2%B7%205020%20Salzburg,47.7985954284668,13.046480178833008,https://www.salzburg.info/en/sights/squares-streets/residenzplatz,0662 889870,*** Waiting for processing ***,*** Waiting for processing ***,*** Waiting for processing ***,*** Waiting for processing ***,*** Waiting for processing ***
PFERDESCHWEMME - HORSE WELL,Herbert-von-Karajan-Platz 11 · 5020 Salzburg,https://www.bing.com/th?id=OLC.QVL7YGSYSCPoQQ480x360&pid=Local,https://www.bing.com/maps?cp=47.79695129394531%7E13.046855926513672&lvl=17.0&q=PFERDESCHWEMME%20-%20HORSE%20WELL%20%2C%20Herbert-von-Karajan-Platz%2011%20%C2%B7%205020%20Salzburg,47.79695129394531,13.046855926513672,http://www.visit-salzburg.net/sights/horsewell.htm,0699 11239230,*** Waiting for processing ***,*** Waiting for processing ***,*** Waiting for processing ***,*** Waiting for processing ***,*** Waiting for processing ***
Haus der Natur,Museumsplatz 5 · 5020 Salzburg,https://www.bing.com/th?id=OLC.BgbpU+ZG/7DQxA480x360&pid=Local,https://www.bing.com/maps?cp=47.80164337158203%7E13.039199829101562&lvl=17.0&q=Haus%20der%20Natur%20%2C%20Museumsplatz%205%20%C2%B7%205020%20Salzburg,47.80164337158203,13.039199829101562,https://www.hausdernatur.at/de/,0662 842653,*** Waiting for processing ***,*** Waiting for processing ***,*** Waiting for processing ***,*** Waiting for processing ***,*** Waiting for processing ***
Tourist Information Mozartplatz,Mozartplatz 5 · 5020 Salzburg,https://www.bing.com/th?id=OLC.zUuFMMikkDH+Tw480x360&pid=Local,https://www.bing.com/maps?cp=47.79912567138672%7E13.047883987426758&lvl=17.0&q=Tourist%20Information%20Mozartplatz%20%2C%20Mozartplatz%205%20%C2%B7%205020%20Salzburg,47.79912567138672,13.047883987426758,https://www.salzburg.info/,0662 88987330,*** Waiting for processing ***,*** Waiting for processing ***,*** Waiting for processing ***,*** Waiting for processing ***,*** Waiting for processing ***
Kapuzinerberg Apartments,3 Kapuzinerberg · 5020 Salzburg,https://www.bing.com/th?id=OLC.yRYVwPgFPolLqA480x360&pid=Local,https://www.bing.com/maps?cp=47.80227279663086%7E13.046215057373047&lvl=17.0&q=Kapuzinerberg%20Apartments%20%2C%203%20Kapuzinerberg%20%C2%B7%205020%20Salzburg,47.80227279663086,13.046215057373047,https://room45apartments.hottel365.com,,*** Waiting for processing ***,*** Waiting for processing ***,*** Waiting for processing ***,*** Waiting for processing ***,*** Waiting for processing ***
Der Florianibrunnen,Alter Markt 6-12 · 5020 Salzburg,https://www.bing.com/th?id=OLC.Ld7Pe+iWLai5nw480x360&pid=Local,https://www.bing.com/maps?cp=47.799381256103516%7E13.045419692993164&lvl=17.0&q=Der%20Florianibrunnen%20%2C%20Alter%20Markt%206-12%20%C2%B7%205020%20Salzburg,47.799381256103516,13.045419692993164,https://www.visit-salzburg.net/hotels.htm,,*** Waiting for processing ***,*** Waiting for processing ***,*** Waiting for processing ***,*** Waiting for processing ***,*** Waiting for processing ***
Aussichtpunkt gaisberg spitze,Geisberg 32 · 5026 Salzburg,https://www.bing.com/th?id=OLC.zfDfKUIwnEwu4g480x360&pid=Local,https://www.bing.com/maps?cp=47.8006706237793%7E13.043370246887207&lvl=17.0&q=Aussichtpunkt%20gaisberg%20spitze%20%2C%20Geisberg%2032%20%C2%B7%205026%20Salzburg,47.8006706237793,13.043370246887207,http://gaisberg.at/,0662 632800,*** Waiting for processing ***,*** Waiting for processing ***,*** Waiting for processing ***,*** Waiting for processing ***,*** Waiting for processing ***
Sphaera,Kapitelplatz · 5020 Salzburg,https://www.bing.com/th?id=OLC.dh+RxEf7yg9ScQ480x360&pid=Local,https://www.bing.com/maps?cp=47.797386169433594%7E13.046055793762207&lvl=17.0&q=Sphaera%20%2C%20Kapitelplatz%20%C2%B7%205020%20Salzburg,47.797386169433594,13.046055793762207,https://www.salzburg.info/en/salzburg/creative-salzburg/art-in-public-room/walk-of-modern-art/sphaera,+33 3 02 79 36 76,*** Waiting for processing ***,*** Waiting for processing ***,*** Waiting for processing ***,*** Waiting for processing ***,*** Waiting for processing ***
Apartment at Mozart-Geburtshaus,Getreidegasse 13 · 5020 Salzburg,https://www.bing.com/th?id=OLC.Jcf2aDgkaa3eCQ480x360&pid=Local,https://www.bing.com/maps?cp=47.80007553100586%7E13.043192863464355&lvl=17.0&q=Apartment%20at%20Mozart-Geburtshaus%20%2C%20Getreidegasse%2013%20%C2%B7%205020%20Salzburg,47.80007553100586,13.043192863464355,https://mozarteum.at/en/mozart-museums/mozarts-birthplace,,*** Waiting for processing ***,*** Waiting for processing ***,*** Waiting for processing ***,*** Waiting for processing ***,*** Waiting for processing ***
Sauterbogen,Dreifaltigkeitsgasse 8 · 5020 Salzburg,https://www.bing.com/th?id=OLC.dChtlBJ/N0ih+A480x360&pid=Local,https://www.bing.com/maps?cp=47.802459716796875%7E13.044879913330078&lvl=17.0&q=Sauterbogen%20%2C%20Dreifaltigkeitsgasse%208%20%C2%B7%205020%20Salzburg,47.802459716796875,13.044879913330078,,,*** Waiting for processing ***,*** Waiting for processing ***,*** Waiting for processing ***,*** Waiting for processing ***,*** Waiting for processing ***
Schloss Emsburg,Hellbrunner Allee 52 · 5020 Salzburg,,https://www.bing.com/maps?cp=47.771392822265625%7E13.062216758728027&lvl=17.0&q=Schloss%20Emsburg%20%2C%20Hellbrunner%20Allee%2052%20%C2%B7%205020%20Salzburg,47.771392822265625,13.062216758728027,,0662 820332,*** Waiting for processing ***,*** Waiting for processing ***,*** Waiting for processing ***,*** Waiting for processing ***,*** Waiting for processing ***
Galerie 5020,Residenzplatz 10 · 5020 Salzburg,https://www.bing.com/th?id=OLC.3AjG754lULazSw480x360&pid=Local,https://www.bing.com/maps?cp=47.79747009277344%7E13.047699928283691&lvl=17.0&q=Galerie%205020%20%2C%20Residenzplatz%2010%20%C2%B7%205020%20Salzburg,47.79747009277344,13.047699928283691,https://5020.info/kontakt,0662 848817,*** Waiting for processing ***,*** Waiting for processing ***,*** Waiting for processing ***,*** Waiting for processing ***,*** Waiting for processing ***
Mönchsberg,Giselakai 27 · 5020 Salzburg,https://www.bing.com/th?id=OLC.clVnxAC3Wo24Kw480x360&pid=Local,https://www.bing.com/maps?cp=47.79534149169922%7E13.043188095092773&lvl=17.0&q=M%C3%B6nchsberg%20%2C%20Giselakai%2027%20%C2%B7%205020%20Salzburg,47.79534149169922,13.043188095092773,http://www.salzburg.com/wiki/index.php/Freyschl%C3%B6sschen,0662 88849700,*** Waiting for processing ***,*** Waiting for processing ***,*** Waiting for processing ***,*** Waiting for processing ***,*** Waiting for processing ***
Castillo & Esterer Oeg,Südtirolerplatz 8 · 5020 Salzburg,,https://www.bing.com/maps?cp=47.81352233886719%7E13.043445587158203&lvl=17.0&q=Castillo%20%26%20Esterer%20Oeg%20%2C%20S%C3%BCdtirolerplatz%208%20%C2%B7%205020%20Salzburg,47.81352233886719,13.043445587158203,,0662 841729,*** Waiting for processing ***,*** Waiting for processing ***,*** Waiting for processing ***,*** Waiting for processing ***,*** Waiting for processing ***
Glasenbachklamm,Glasenbachklamm Elsbethen,https://www.bing.com/th?id=OLC.DXhB3Pl4pZeMyw480x360&pid=Local,https://www.bing.com/maps?cp=47.768699645996094%7E13.086600303649902&lvl=17.0&q=Glasenbachklamm%20%2C%20Glasenbachklamm%20Elsbethen,47.768699645996094,13.086600303649902,http://www.elsbethen.info/de/elsbethen-1/sehenswertes-im-ort-110.htm,,*** Waiting for processing ***,*** Waiting for processing ***,*** Waiting for processing ***,*** Waiting for processing ***,*** Waiting for processing ***
Huber-Benozzo Ivana,Rudolf-Biebl-Straße 26 · 5020 Salzburg,,https://www.bing.com/maps?cp=47.80937194824219%7E13.026912689208984&lvl=17.0&q=Huber-Benozzo%20Ivana%20%2C%20Rudolf-Biebl-Stra%C3%9Fe%2026%20%C2%B7%205020%20Salzburg,47.80937194824219,13.026912689208984,,0662 444749,*** Waiting for processing ***,*** Waiting for processing ***,*** Waiting for processing ***,*** Waiting for processing ***,*** Waiting for processing ***
Ebenauer Mühlenwanderweg,Messingstr. 29 · 5323 Ebenau,https://www.bing.com/th?id=OLC.vvIAy/xvkvAkXw480x360&pid=Local,https://www.bing.com/maps?cp=47.79059600830078%7E13.175146102905273&lvl=17.0&q=Ebenauer%20M%C3%BChlenwanderweg%20%2C%20Messingstr.%2029%20%C2%B7%205323%20Ebenau,47.79059600830078,13.175146102905273,,06221 8055,*** Waiting for processing ***,*** Waiting for processing ***,*** Waiting for processing ***,*** Waiting for processing ***,*** Waiting for processing ***
Sankt Johannes,Johannishögl 3 Piding,,https://www.bing.com/maps?cp=47.791534423828125%7E12.923513412475586&lvl=17.0&q=Sankt%20Johannes%20%2C%20Johannish%C3%B6gl%203%20Piding,47.791534423828125,12.923513412475586,https://www.berggasthof-johannishoegl.de/,08656 397,*** Waiting for processing ***,*** Waiting for processing ***,*** Waiting for processing ***,*** Waiting for processing ***,*** Waiting for processing ***
Reichenhallmuseum,Getreidegasse 4 · 83435 Bad Reichenhall,https://www.bing.com/th?id=OLC.CfxlaGABggEKwg480x360&pid=Local,https://www.bing.com/maps?cp=47.72370910644531%7E12.875869750976562&lvl=17.0&q=Reichenhallmuseum%20%2C%20Getreidegasse%204%20%C2%B7%2083435%20Bad%20Reichenhall,47.72370910644531,12.875869750976562,https://www.reichenhallmuseum.de/startseite,08651 7149939,*** Waiting for processing ***,*** Waiting for processing ***,*** Waiting for processing ***,*** Waiting for processing ***,*** Waiting for processing ***
Salzburger Kunstverein,Hellbrunner Strasse 3 · 5020 Salzburg,https://www.bing.com/th?id=OLC.YRrMG6nSn+pnxA480x360&pid=Local,https://www.bing.com/maps?cp=47.796852111816406%7E13.054740905761719&lvl=17.0&q=Salzburger%20Kunstverein%20%2C%20Hellbrunner%20Strasse%203%20%C2%B7%205020%20Salzburg,47.796852111816406,13.054740905761719,https://salzburger-kunstverein.at/,0662 842294,*** Waiting for processing ***,*** Waiting for processing ***,*** Waiting for processing ***,*** Waiting for processing ***,*** Waiting for processing ***
Segway Salzburg,Wolf-Dietrich-Strasse 3 · 5020 Salzburg,https://www.bing.com/th?id=OLC.6xJDX+96FIPh7g480x360&pid=Local,https://www.bing.com/maps?cp=47.804447174072266%7E13.04836654663086&lvl=17.0&q=Segway%20Salzburg%20%2C%20Wolf-Dietrich-Strasse%203%20%C2%B7%205020%20Salzburg,47.804447174072266,13.04836654663086,https://segway-salzburg.at/en/imprint.html,0676 6744425,*** Waiting for processing ***,*** Waiting for processing ***,*** Waiting for processing ***,*** Waiting for processing ***,*** Waiting for processing ***
Lydia Hager,Haslachweg 19/4 · 5061 ELSBETHEN,,https://www.bing.com/maps?cp=47.74677658081055%7E13.084209442138672&lvl=17.0&q=Lydia%20Hager%20%2C%20Haslachweg%2019%2F4%20%C2%B7%205061%20ELSBETHEN,47.74677658081055,13.084209442138672,,0664 2301850,*** Waiting for processing ***,*** Waiting for processing ***,*** Waiting for processing ***,*** Waiting for processing ***,*** Waiting for processing ***
Marien Statue,Domplatz 1 · 5020 Salzburg,https://www.bing.com/th?id=OLC.dH9yh3k8GAdYnQ480x360&pid=Local,https://www.bing.com/maps?cp=47.798126220703125%7E13.045886039733887&lvl=17.0&q=Marien%20Statue%20%2C%20Domplatz%201%20%C2%B7%205020%20Salzburg,47.798126220703125,13.045886039733887,https://www.salzburg.info/en/sights/squares-streets/domplatz-marienstatue,,*** Waiting for processing ***,*** Waiting for processing ***,*** Waiting for processing ***,*** Waiting for processing ***,*** Waiting for processing ***
Robinighof,Robinigstrasse 35 · 5020 Salzburg,,https://www.bing.com/maps?cp=47.81422424316406%7E13.061925888061523&lvl=17.0&q=Robinighof%20%2C%20Robinigstrasse%2035%20%C2%B7%205020%20Salzburg,47.81422424316406,13.061925888061523,,,*** Waiting for processing ***,*** Waiting for processing ***,*** Waiting for processing ***,*** Waiting for processing ***,*** Waiting for processing ***
Schloss Arenberg,Arenbergstrasse 10 · 5020 Salzburg,https://www.bing.com/th?id=OLC.GAdeoouxhYSbCw480x360&pid=Local,https://www.bing.com/maps?cp=47.799903869628906%7E13.058442115783691&lvl=17.0&q=Schloss%20Arenberg%20%2C%20Arenbergstrasse%2010%20%C2%B7%205020%20Salzburg,47.799903869628906,13.058442115783691,http://www.aaf-online.org/,0662 640101,*** Waiting for processing ***,*** Waiting for processing ***,*** Waiting for processing ***,*** Waiting for processing ***,*** Waiting for processing ***
"Museum Elsbethen-Glasenbach ""Zum Pulvermacher""",Johann-Herbst-Strasse 35 · 5061 Elsbethen,https://www.bing.com/th?id=OLC.EkuuRMAxhcgGSA480x360&pid=Local,https://www.bing.com/maps?cp=47.77008819580078%7E13.084182739257812&lvl=17.0&q=Museum%20Elsbethen-Glasenbach%20%22Zum%20Pulvermacher%22%20%2C%20Johann-Herbst-Strasse%2035%20%C2%B7%205061%20Elsbethen,47.77008819580078,13.084182739257812,http://www.museum-elsbethen.at/,0676 3158590,*** Waiting for processing ***,*** Waiting for processing ***,*** Waiting for processing ***,*** Waiting for processing ***,*** Waiting for processing ***
"Kultur Tourismus Salzburg, Mag. Christiana Schneeweiss",Gneiser Straße 53 · 5020 Salzburg,https://www.bing.com/th?id=OLC.f22lC2vn33Xq2w480x360&pid=Local,https://www.bing.com/maps?cp=47.77434158325195%7E13.053505897521973&lvl=17.0&q=Kultur%20Tourismus%20Salzburg%2C%20Mag.%20Christiana%20Schneeweiss%20%2C%20Gneiser%20Stra%C3%9Fe%2053%20%C2%B7%205020%20Salzburg,47.77434158325195,13.053505897521973,https://www.booking.kultur-tourismus.com/de,0662 834833,*** Waiting for processing ***,*** Waiting for processing ***,*** Waiting for processing ***,*** Waiting for processing ***,*** Waiting for processing ***
Mag. Tanja Horazdovsky,Pfaffingerweg 6 · 5026 Salzburg,https://www.bing.com/th?id=OLC.0usSlm7aZxhxcQ480x360&pid=Local,https://www.bing.com/maps?cp=47.777801513671875%7E13.079068183898926&lvl=17.0&q=Mag.%20Tanja%20Horazdovsky%20%2C%20Pfaffingerweg%206%20%C2%B7%205026%20Salzburg,47.777801513671875,13.079068183898926,https://www.findaguide.at/?guid=82d78aef-74c2-4a87-a4f9-c79691f939ca,0699 15064846,*** Waiting for processing ***,*** Waiting for processing ***,*** Waiting for processing ***,*** Waiting for processing ***,*** Waiting for processing ***